METAR EDAH 220720Z 09003KT CAVOK 14/10 Q1023=
METAR EDDB 220720Z VRB02KT CAVOK 12/07 Q1023 NOSIG=
METAR EDDC 220720Z 15005KT CAVOK 10/10 Q1023 NOSIG=
METAR EDDE 220720Z 21008KT CAVOK 11/09 Q1022 NOSIG=
METAR EDDF 220720Z 08006KT CAVOK 12/08 Q1022 NOSIG=
METAR EDDG 220720Z VRB01KT CAVOK 12/08 Q1022 NOSIG=
METAR EDDH 220720Z 11003KT 070V170 CAVOK 13/09 Q1022 NOSIG=
METAR EDDK 220720Z 12003KT 060V160 CAVOK 11/08 Q1022 NOSIG=
METAR EDDL 220720Z 15008KT CAVOK 13/08 Q1021 NOSIG=
METAR EDDM 220720Z VRB01KT 4500 1600SE PRFG NSC 07/07 Q1023 BECMG 6000=
METAR EDDN 220720Z VRB02KT CAVOK 10/08 Q1023 NOSIG=
METAR EDDP 220720Z 17004KT CAVOK 13/11 Q1022 NOSIG=
METAR EDDR 220720Z 07004KT 020V110 CAVOK 12/08 Q1022 NOSIG=
METAR EDDS 220720Z VRB01KT CAVOK 10/08 Q1022 NOSIG=
METAR EDDT 220720Z 11004KT 080V150 CAVOK 14/06 Q1023 NOSIG=
METAR EDDV 220720Z VRB02KT 7000 NSC 13/11 Q1022 NOSIG=
METAR EDDW 220720Z 12005KT 090V160 1600 R09/0900V1600D PRFG BR SCT002 11/11 Q1022 BECMG 5000=
METAR EDFE 220720Z VRB02KT CAVOK 10/09 Q1022=
METAR EDFH 220720Z 15007KT CAVOK 10/07 Q1022=
METAR EDFM 220720Z 35004KT 320V020 CAVOK 11/10 Q1023=
METAR EDGS 220720Z 15006KT CAVOK 13/08 Q1022=
METAR EDHI 220720Z VRB01KT CAVOK 13/10 Q1022=
METAR EDHK 220720Z 14004KT 9999 SCT044 12/12 Q1022=
METAR EDHL 220720Z VRB02KT CAVOK 12/09 Q1023=
METAR COR EDJA 220720Z VRB01KT 6000 NSC 08/07 Q1022=
METAR EDLN 220720Z 15004KT 110V190 CAVOK 12/09 Q1021=
METAR EDLP 220720Z 18006KT CAVOK 15/08 Q1022=
METAR EDLV 220720Z 14006KT CAVOK 13/09 Q1021=
METAR EDLW 220720Z 17009KT CAVOK 12/06 Q1022=
METAR EDMA 220720Z VRB01KT 8000 NSC 09/09 Q1022=
METAR EDMO 220720Z 00000KT CAVOK 11/11 Q1022=
METAR EDNY 220720Z 03005KT 4800 BR SCT007 SCT009 09/08 Q1022=
METAR EDOP 220720Z 05004KT CAVOK 11/08 Q1023=
METAR COR EDQM 220720Z VRB02KT 5000 BR NSC 10/09 Q1023=
METAR EDSB 220720Z VRB02KT 8000 VCFG NSC 09/09 Q1022=
METAR EDTL 220720Z 06002KT CAVOK 10/08 Q1022=
METAR EDTY 220720Z VRB01KT 8000 NSC 10/07 Q1022=
METAR EDVE 220720Z VRB03KT 9999 FEW045 12/12 Q1022=
METAR EDVK 220720Z VRB02KT 9999 BCFG NSC 10/09 Q1023=
METAR ETAD 220658Z AUTO 00000KT 9999 CLR 09/07 A3019 RMK AO2 SLP216 T00890066 =
METAR ETAR 220658Z 08003KT 9999 CLR 06/06 A3019 RMK AO2A SLP232 T00610059 =
METAR ETEB 220658Z AUTO 00000KT 9999 CLR 09/08 A3019 RMK AO2 SLP238 T00910084=
METAR ETGG 220720Z 13010KT 9999 FEW050 BKN250 12/11 Q1022 BLU+=
METAR ETHA 220720Z 35001KT 0200 FG 08/08 Q1022 RED RED BECMG BLU+=
METAR ETHB 220720Z 18004KT 9999 SCT350 15/11 Q1022 BLU+BLU+=
METAR ETHC 220720Z 01001KT 9999 FEW058 BKN260 09/08 Q1022 BLACKBLU+BLU+=
METAR ETHE 220720Z 18003KT 9999 FEW350 12/08 Q1022 BLU+=
METAR ETHF 220720Z VRB01KT 4000 VCFG FEW003 BKN300 08/08 Q1023 GRN GRN BECMG BLU+=
METAR ETHL 220720Z 04003KT 3800 BR FEW005 07/06 Q1022 GRN GRN BECMG BLU+=
METAR ETHN 220720Z 09002KT 9999 SCT280 13/08 Q1022 BLU+BLU+=
METAR ETHS 220720Z 00000KT 9999 FEW060 BKN330 11/08 Q1022 BLU+BLU+=
METAR ETIC 220658Z AUTO 00000KT M0400 FG VV001 06/05 A3020 RMK AO2 SLP237 RVRNO=
METAR ETIH 220658Z AUTO 00000KT 9999 CLR 08/07 A3021 RMK AO2 SLP238=
METAR ETIK 220658Z AUTO 05001KT 9999 SCT001 07/07 A3022 RMK AO2 SLP240 T00680068=
METAR ETMN 220720Z 15003KT 9999 SCT060 SCT330 12/10 Q1021 BLU+BLU+=
METAR ETND 220720Z VRB02KT 9999 FEW200 BKN300 12/10 Q1022 BLU+BLU+=
METAR ETNG 220650Z 11004KT CAVOK 12/08 Q1021 NOSIG=
METAR ETNH 220720Z 13004KT 9999 SCT058 BKN220 11/09 Q1022 BLACKBLU+=
METAR ETNL 220720Z 10004KT 9999 SCT200 BKN270 13/08 Q1023 BLU+BLU+=
METAR ETNN 220720Z 15004KT 9999 SCT300 13/06 Q1022 BLU+BLU+=
METAR ETNS 220720Z 12005KT 9999 FEW060 BKN250 12/09 Q1022 BLU+=
METAR ETNT 220720Z 17004KT 8000 FEW150 SCT280 14/11 Q1021 BLU+BLU+=
METAR ETNW 220720Z VRB01KT 1200 BR BKN350 12/11 Q1022 AMB AMB BECMG BLU+=
METAR ETOU 220658Z AUTO 00000KT 9999 CLR 10/06 A3020 RMK AO2 SLP230 T00980057=
METAR ETSA 220720Z 12003KT 5000 BR FEW220 10/07 Q1022 WHT WHT BECMG BLU+=
METAR ETSB 220720Z 33002KT 9999 FEW350 12/07 Q1022 BLU+BLU+=
METAR ETSH 220720Z 13004KT 9999 SCT300 11/08 Q1023 BLU+BLU+=
METAR ETSI 220720Z 03002KT 0300 R25/0500N FG VV002 07/06 Q1023 RED RED BECMG WHT=
METAR ETSL 220720Z VRB02KT 6000 FEW002 10/07 Q1022 WHT WHT BECMG BLU+=
METAR ETSN 220720Z 17002KT 5000 BR FEW003 08/07 Q1022 WHT=
METAR ETWM 220720Z 18001KT 9999 SCT320 11/10 Q1021 BLU+=
METAR EGAA 220720Z 16004KT 9999 FEW010 07/06 Q1015=
METAR EGAC 220720Z 17004KT 9999 FEW001 SCT024 07/07 Q1015=
METAR EGAE 220720Z 26007KT 180V280 CAVOK 08/07 Q1014=
METAR EGBB 220720Z 21004KT 180V250 9999 BKN004 BKN013 13/13 Q1017=
METAR EGBE 220720Z 22007KT 4000 DZ BKN015 14/13 Q1017=
METAR EGBJ 220720Z 27002KT 9999 FEW009 BKN040 14/14 Q1017=
METAR COR EGCC 220720Z 23004KT 180V250 9999 FEW008 BKN035 13/12 Q1017 NOSIG=
METAR EGCN 220720Z 19006KT 9999 BKN026 14/12 Q1017=
METAR EGDM 220650Z 19006KT 9999 FEW015 BKN038 BKN090 13/12 Q1018 BLU BECMG 5000 -RA SCT014 GRN=
METAR EGDR 220650Z 30003KT 9999 FEW000 09/09 Q1019 BLU TEMPO 4000 BR SCT007 GRN=
METAR EGDX 220650Z AUTO 30008KT 9999 BKN024/// BKN039/// 13/11 Q1018 RERA=
METAR EGDY 220650Z 26007KT 9999 FEW012 BKN030 BKN060 14/13 Q1018 BLU NOSIG=
METAR EGEC 220720Z 09006KT 9999 FEW019 08/07 Q1014=
METAR EGEO 220720Z 11008KT 9999 FEW008 08/08 Q1014=
METAR EGFF 220720Z AUTO 31009KT 9999 BKN028 12/12 Q1018=
METAR EGGD 220720Z AUTO 25004KT 9999 BKN013 BKN025 13/12 Q1018=
METAR EGGP 220720Z 27007KT 9999 FEW012 12/11 Q1017=
METAR EGGW 220720Z AUTO 21005KT 150V240 9999 NCD 13/13 Q1018=
METAR EGHE 220720Z 32005KT 9999 FEW036 13/07 Q1020=
METAR EGHH 220720Z 21007KT 9999 BKN035 16/13 Q1018=
METAR EGHI 220720Z 09001KT 9999 FEW025 12/11 Q1018 =
METAR EGHQ 220720Z 14003KT 9999 FEW035 11/08 Q1019=
METAR EGJA 220720Z 21009KT 9999 FEW020 BKN049 16/13 Q1019=
METAR EGJB 220720Z 20007KT 9999 FEW018 SCT032 BKN049 16/13 Q1019=
METAR EGJJ 220720Z 22007KT 9999 FEW018 16/13 Q1020 NOSIG=
METAR EGKA 220720Z 36001KT 9999 FEW018 14/13 Q1018=
METAR EGKB 220720Z 23005KT CAVOK 14/12 Q1019 =
METAR EGKK 220720Z 21002KT 9000 NSC 13/13 Q1019=
METAR EGLC 220720Z 25007KT 9999 FEW035 16/12 Q1019=
METAR EGLF 220720Z 19004KT CAVOK 13/12 Q1018=
METAR COR EGLL 220720Z AUTO 22006KT 9999 NCD 15/13 Q1019 NOSIG=
METAR EGMC 220720Z 24006KT 8000 NSC 15/12 Q1018=
METAR EGMD 220720Z 29007KT CAVOK 16/14 Q1019=
METAR COR EGMW 220720Z 19012KT 9999 SCT022 19/15 Q1017 NOSIG=
METAR EGNH 220720Z 29009KT 9999 SCT045 14/10 Q1016=
METAR EGNJ 220720Z 21010KT 4500 BR SCT010 14/13 Q1017=
METAR EGNM 220720Z 25006KT 200V300 9999 7000SE -RA FEW006 BKN011 12/11 Q1016=
METAR EGNO 220720Z 29006KT 9999 FEW015 13/10 Q1016=
METAR EGNR 220720Z VRB02KT 9999 FEW015 13/11 Q1017=
METAR EGNS 220720Z VRB03KT 9999 FEW018 11/08 Q1016 NOSIG=
METAR EGNT 220720Z 20004KT 160V240 9999 FEW020 13/13 Q1014=
METAR EGNV 220720Z 19012KT 9999 FEW012 SCT023 14/12 Q1015=
METAR EGNX 220720Z 23009KT 9999 FEW013 SCT022 BKN039 13/12 Q1017=
METAR EGOM 220650Z AUTO 23013KT 6000 BR BKN001/// 11/11 Q1013 RERA=
METAR EGOP 220650Z AUTO 36002KT 9999 // NCD 07/07 Q1018=
METAR EGOS 220650Z 26007KT 9999 FEW014 SCT035 11/10 Q1017 BLU NOSIG=
METAR EGOV 220650Z 26003KT 9999 FEW025 10/07 Q1017 BLU NOSIG=
METAR EGPA 220720Z 16001KT 9999 FEW016 BKN045 11/11 Q1012=
METAR COR EGPB 220720Z 16011KT 8000 -RA SCT003 BKN006 13/13 Q1012 TEMPO 4000 RADZ =
METAR EGPC 220720Z 00000KT 9999 FEW012 SCT038 11/10 Q1013=
METAR EGPD 220720Z 00000KT 9999 FEW005 SCT048 13/12 Q1012 NOSIG=
METAR EGPE 220720Z 24003KT 9999 FEW004 SCT048 10/09 Q1013=
METAR EGPF 220720Z AUTO VRB02KT 9999 SCT044 09/08 Q1014=
METAR EGPH 220720Z 25007KT 9999 FEW020 SCT038 11/10 Q1014=
METAR EGPI 220720Z 12005KT 9999 FEW010 09/08 Q1014=
METAR EGPK 220720Z 26006KT 9999 FEW018 12/10 Q1015=
METAR EGPL 220720Z 16008KT 9999 FEW022 10/09 Q1011=
METAR COR EGPM 220720Z 00000KT 080V140 9999 -RA FEW010 11/09 Q1012 TEMPO RA=
METAR EGPN 220720Z 26006KT 9999 FEW006 SCT015 BKN048 12/12 Q1013=
METAR EGPO 220720Z 18012KT 9999 FEW026 12/09 Q1011=
METAR EGPU 220650Z AUTO VRB11KT 9999 NCD 11/09 Q1012=
METAR EGQK 220650Z AUTO 20003KT 9999 OVC041/// 11/09 Q1013 RERA=
METAR EGQL 220650Z 25004KT 8000 -RA FEW007 BKN016 BKN024 13/12 Q1012 WHT=
METAR EGQM 220650Z AUTO 19006KT 9999 BKN060/// BKN100/// 13/12 Q1013 RERA=
METAR EGQS 220650Z 26008KT 9999 FEW010 BKN036 11/09 Q1013 BLU NOSIG=
METAR EGRE 220720Z AUTO 15028KT 9000 BKN005/// 15/13 Q1014 W///S4=
METAR EGRK 220720Z AUTO 15029KT CAVOK 15/12 Q1016 W///S4=
METAR EGRM 220720Z AUTO 16034KT 9999 FEW028/// 16/13 Q1014 W///S4=
METAR EGRO 220720Z AUTO /////KT CAVOK 15/14 Q1015 W///S4=
METAR EGRP 220720Z AUTO 13022KT CAVOK 16/16 Q1015 W///S4=
METAR EGRS 220720Z AUTO 15025KT 9999 -RA NCD 16/14 Q1015 W///S3=
METAR EGRV 220720Z AUTO 20014KT 8000 NCD ///// Q1017=
METAR EGRW 220720Z AUTO 19015KT CAVOK 16/// Q1017 W///S3=
METAR EGSC 220720Z VRB03KT 6000 FEW037 14/13 Q1018=
METAR COR EGSH 220720Z 21004KT 3000 BR FEW048 15/15 Q1018 BECMG 8000 NSW=
METAR EGSS 220720Z AUTO 23007KT 9000 NCD 14/12 Q1018=
METAR EGTE 220720Z VRB03KT 9999 FEW003 12/11 Q1018=
METAR EGTK 220720Z 21006KT 9999 FEW020 BKN034 13/13 Q1017=
METAR EGUB 220650Z 18007KT 9999 BKN045 13/12 Q1018 BLU NOSIG=
METAR EGUL 220658Z AUTO 18004KT 9999 CLR 15/14 A3004 RMK AO2 DZB48E57 SLP176 P0000 VISNO RWY06 CHINO RWY06 $=
METAR EGUN 220658Z AUTO 21003KT 9999 CLR 14/14 A3004 RMK AO2 SLP176 T01430143 $=
METAR EGUO 220650Z 22009KT 2000 DZ VV/// 13/13 Q1018 RED=
METAR EGUW 220650Z 24005KT 3500 HZ FEW070 SCT250 14/13 Q1018 YLO1 BECMG 5000 HZ WHT=
METAR EGVA 220658Z AUTO 21007KT M -DZ FEW021 OVC030 14/14 A3005 RMK AO2 DZB47 CIG 025 RWY27 SLP178 P0000 T01390139 =
METAR EGVN 220650Z 18003KT 9999 -RA FEW018 BKN030 14/12 Q1017 TEMPO 7000 -RADZ BKN015=
METAR EGVO 220650Z 20008KT CAVOK 14/11 Q1018 BLU=
METAR EGVP 220650Z 17005KT 9999 -RA FEW012 BKN050 BKN130 13/12 Q1018 BLU TEMPO SCT012 GRN=
METAR EGWU 220650Z 23004KT 9999 FEW040 BKN160 14/12 Q1018 NOSIG=
METAR EGXC 220650Z 19005KT 5000 BR FEW040 BKN150 BKN200 13/13 Q1017 WHT BECMG 9999 NSW BLU=
METAR EGXE 220650Z 18008KT 9999 FEW018 SCT021 13/12 Q1015 WHT BECMG BKN035 BLU=
METAR EGXP 220650Z 21009KT 9999 FEW035 BKN130 13/12 Q1016 BLU=
METAR EGXS 220650Z AUTO 18006KT 3500 // FEW060/// 13/13 Q1016=
METAR EGXT 220650Z 22007KT CAVOK 13/13 Q1017 BLU=
METAR EGXU 220650Z 18006KT 6000 4500NE BR FEW025 SCT045 BKN080 14/13 Q1015 GRN TEMPO SCT015 WHT=
METAR EGXV 220650Z AUTO 20004KT 3900 -SHRA BKN080/// BKN140/// 14/13 Q1016=
METAR EGXW 220650Z 22010KT CAVOK 13/11 Q1016 BLU NOSIG=
METAR EGXZ 220650Z 17008KT 5000 DZ SCT027 OVC060 13/12 Q1015 WHT=
METAR EGYD 220650Z 19006KT CAVOK 13/12 Q1017 BLU NOSIG=
METAR EGYM 220650Z 17003KT 5000 HZ FEW012 OVC040 14/12 Q1017 WHT NOSIG=
METAR EGYP 220650Z 36019KT 9999 FEW045 SCT080 BKN220 06/04 Q1002 BLU=
METAR EICK 220700Z 19003KT 9999 FEW026 SCT250 07/06 Q1017 NOSIG=
METAR EIDW 220700Z 21006KT 9999 FEW025 07/05 Q1016 NOSIG=
METAR EIKN 220700Z 16005KT 9999 FEW006 SCT250 05/05 Q1013 NOSIG=
METAR EINN 220700Z 13005KT 9999 FEW018CB BKN200 08/06 Q1016 WS RWY06 NOSIG=
METAR LFAQ 220700Z AUTO 16004KT 8000 NSC 12/11 Q1020 TEMPO 3000 MIFG=
METAR LFAT 220700Z AUTO 13004KT 6000 NSC 13/12 Q1019 TEMPO BKN008=
METAR LFBA 220700Z AUTO 10003KT 7000 FEW001 SCT240 12/11 Q1020 TEMPO 0800 BCFG VV///=
METAR LFBC 220700Z AUTO 02002KT CAVOK 14/13 Q1019 NOSIG=
METAR LFBD 220700Z AUTO 00000KT CAVOK 15/14 Q1019 NOSIG=
METAR LFBE 220700Z AUTO 08003KT CAVOK 10/10 Q1020 NOSIG=
METAR LFBG 220700Z AUTO 00000KT CAVOK 12/10 Q1020 NOSIG=
METAR LFBH 220700Z AUTO 02004KT CAVOK 15/13 Q1019 NOSIG=
METAR LFBI 220700Z AUTO 15001KT CAVOK 10/10 Q1020 NOSIG=
METAR LFBL 220700Z AUTO 04003KT CAVOK 11/09 Q1020 NOSIG=
METAR LFBM 220700Z AUTO 09002KT 0650 0550 R27/1200U FG VV/// 11/10 Q1020 TEMPO 2000 BR BKN002=
METAR LFBO 220700Z AUTO VRB03KT CAVOK 12/10 Q1020 NOSIG=
METAR LFBP 220700Z AUTO 23003KT CAVOK 15/13 Q1019 TEMPO 3000 BR VV///=
METAR LFBR 220700Z AUTO 19004KT //// // ////// 12/11 Q1020=
METAR LFBT 220700Z AUTO 16003KT 9999 FEW004 12/10 Q1020 NOSIG=
METAR LFBU 220700Z AUTO 14004KT 090V180 CAVOK 14/08 Q1020 NOSIG=
METAR LFBY 220700Z 07002KT 0550 FG BKN003 12/11 Q1019=
METAR LFBZ 220700Z AUTO 19002KT CAVOK 16/15 Q1019 TEMPO 3000 BR BECMG BKN011=
METAR LFCK 220700Z AUTO 00000KT CAVOK 14/10 Q1021 NOSIG=
METAR LFCR 220700Z AUTO VRB01KT CAVOK 09/08 Q1021 NOSIG=
METAR LFGA 220700Z AUTO 20002KT CAVOK 11/08 Q1022=
METAR LFGJ 220700Z AUTO 10003KT CAVOK 10/09 Q1021 NOSIG=
METAR LFJL 220700Z AUTO VRB02KT 8000 NSC 09/08 Q1022 NOSIG=
METAR LFJR 220700Z AUTO 08001KT 9000 NSC 11/10 Q1020 NOSIG=
METAR LFKB 220700Z 28003KT 9999 FEW026 20/16 Q1018 NOSIG=
METAR LFKC 220700Z VRB02KT 9999 FEW021 FEW030TCU 19/13 Q1018 NOSIG=
METAR LFKF 220700Z AUTO 00000KT CAVOK 22/13 Q1017 BECMG 25010KT=
METAR COR LFKJ 220700Z 04005KT 9999 FEW030 17/13 Q1018 NOSIG=
METAR LFKS 220700Z AUTO VRB02KT CAVOK 21/12 Q1017=
METAR LFLB 220700Z VRB02KT 7000 FEW033 11/10 Q1021 NOSIG=
METAR LFLC 220700Z AUTO 00000KT CAVOK 11/08 Q1021 NOSIG=
METAR LFLL 220700Z VRB02KT CAVOK 11/10 Q1021 NOSIG=
METAR LFLN 220700Z AUTO 00000KT 8000 NSC 09/09 Q1021 TEMPO 0400 FG VV///=
METAR LFLP 220700Z AUTO 00000KT CAVOK 11/09 Q1021 NOSIG=
METAR LFLS 220700Z AUTO 00000KT 6000 NSC 11/11 Q1021 NOSIG=
METAR LFLU 220700Z AUTO 04004KT CAVOK 13/11 Q1020=
METAR LFLX 220700Z AUTO 00000KT CAVOK 12/12 Q1020 NOSIG=
METAR LFLY 220700Z AUTO 00000KT CAVOK 12/10 Q1021 TEMPO 2000 MIFG=
METAR LFMC 220700Z 00000KT 9999 4000E VCFG FEW001 15/13 Q1019=
METAR LFMD 220700Z AUTO 36004KT 320V050 CAVOK 16/13 Q1018 NOSIG=
METAR LFMH 220700Z 00000KT CAVOK 09/08 Q1021 NOSIG=
METAR LFMI 220700Z AUTO 35007KT CAVOK 17/11 Q1018 NOSIG=
METAR LFMK 220700Z AUTO 00000KT CAVOK 12/10 Q1020 NOSIG=
METAR LFML 220700Z AUTO 23003KT CAVOK 16/12 Q1018 NOSIG=
METAR LFMN 220700Z 33012KT CAVOK 18/11 Q1018 NOSIG=
METAR LFMO 220700Z AUTO 00000KT CAVOK 14/10 Q1019 NOSIG=
METAR LFMP 220700Z AUTO 25004KT CAVOK 18/08 Q1019 NOSIG=
METAR LFMT 220700Z VRB02KT CAVOK 14/09 Q1019 NOSIG=
METAR LFMU 220700Z AUTO VRB02KT CAVOK 15/10 Q1019 NOSIG=
METAR LFMV 220700Z AUTO 00000KT CAVOK 14/12 Q1019 NOSIG=
METAR LFMY 220700Z AUTO 00000KT CAVOK 15/11 Q1019 NOSIG=
METAR LFOA 220700Z AUTO 07002KT CAVOK 11/09 Q1021=
METAR LFOB 220700Z AUTO 00000KT 4300 BR VV/// 10/10 Q1020 BECMG CAVOK=
METAR LFOC 220700Z AUTO 00000KT 7000 NSC 11/11 Q1020 NOSIG=
METAR LFOE 220700Z AUTO 11002KT CAVOK 12/10 Q1020=
METAR LFOH 220700Z AUTO VRB01KT 9999 BKN019 OVC210 15/13 Q1020 TEMPO BKN008=
METAR LFOJ 220700Z AUTO VRB02KT CAVOK 12/11 Q1020 NOSIG=
METAR LFOK 220700Z AUTO 00000KT CAVOK 10/10 Q1021 NOSIG=
METAR LFOP 220700Z AUTO 15003KT 7000 NSC 11/10 Q1020 NOSIG=
METAR LFOT 220700Z AUTO 11002KT CAVOK 12/10 Q1020 NOSIG=
METAR LFOV 220700Z AUTO 02002KT 7000 NSC 11/11 Q1020=
METAR LFPB 220700Z AUTO 07003KT CAVOK 13/11 Q1020 NOSIG=
METAR LFPG 220700Z 16002KT CAVOK 15/10 Q1020 NOSIG=
METAR LFPM 220700Z AUTO 10002KT CAVOK 12/10 Q1021=
METAR LFPN 220700Z AUTO 00000KT 8000 NSC 12/11 Q1020 NOSIG=
METAR COR LFPO 220700Z VRB02KT CAVOK 12/12 Q1021 NOSIG=
METAR LFPT 220700Z AUTO 06002KT 5000 BR NSC 11/11 Q1020=
METAR LFPV 220700Z AUTO VRB02KT CAVOK 15/11 Q1020 NOSIG=
METAR LFQA 220700Z AUTO 11004KT CAVOK 11/09 Q1021=
METAR LFQB 220700Z AUTO 15004KT CAVOK 10/09 Q1021=
METAR LFQQ 220700Z AUTO 16004KT 8000 NSC 12/11 Q1020 NOSIG=
METAR LFRB 220700Z AUTO 18007KT CAVOK 14/13 Q1019 TEMPO 4000 -RADZ BR BKN005=
METAR LFRC 220700Z AUTO 21005KT CAVOK 13/11 Q1019 NOSIG=
METAR LFRD 220700Z AUTO VRB03KT 9999 NCD 12/12 Q1020 NOSIG=
METAR LFRG 220700Z AUTO 22002KT 9999 OVC006 14/11 Q1020 BECMG SCT040=
METAR LFRH 220700Z AUTO 06003KT CAVOK 10/09 Q1020 NOSIG=
METAR LFRI 220700Z AUTO 01003KT CAVOK 13/13 Q1020=
METAR LFRJ 220700Z AUTO 18005KT CAVOK 13/11 Q1019 TEMPO 4000 RADZ BR BKN007=
METAR LFRK 220700Z AUTO 28003KT 9999 BKN020 14/13 Q1019 TEMPO BKN014=
METAR LFRL 220700Z AUTO 17004KT 9999 FEW020 BKN054 BKN074 14/13 Q1019 NOSIG=
METAR LFRM 220700Z AUTO 00000KT CAVOK 11/10 Q1020 NOSIG=
METAR LFRN 220700Z AUTO 29002KT 8000 NCD 12/12 Q1020 NOSIG=
METAR LFRO 220700Z AUTO 14004KT CAVOK 12/11 Q1020 TEMPO 4000 -RADZ BR BKN005=
METAR LFRQ 220700Z AUTO 05003KT CAVOK 11/11 Q1019 BECMG OVC010=
METAR LFRS 220700Z AUTO 00000KT CAVOK 13/13 Q1019 NOSIG=
METAR LFRT 220700Z AUTO 18004KT 150V210 CAVOK 12/09 Q1020=
METAR LFRU 220700Z AUTO 17003KT 130V210 CAVOK 14/11 Q1019=
METAR LFRV 220700Z AUTO 03002KT 9999 NCD 11/10 Q1020=
METAR LFRZ 220700Z AUTO VRB02KT 9999 NCD 11/11 Q1020 NOSIG=
METAR LFSB 220700Z VRB02KT 8000 FEW006 10/09 Q1022 NOSIG=
METAR LFSD 220700Z AUTO 34004KT CAVOK 11/08 Q1021=
METAR LFSG 220700Z AUTO 26004KT 9000 NSC 08/07 Q1022=
METAR LFSI 220700Z AUTO VRB01KT CAVOK 10/09 Q1021=
METAR LFSL 220700Z AUTO 11002KT CAVOK 11/09 Q1020 NOSIG=
METAR LFSN 220700Z AUTO VRB02KT 9000 ////// 09/08 Q1022=
METAR LFSO 220700Z AUTO 00000KT 7000 NSC 09/08 Q1021 BECMG 06010KT=
METAR LFST 220700Z AUTO 01004KT CAVOK 11/09 Q1022 TEMPO 3000 BR=
METAR LFSX 220700Z AUTO 00000KT 6000 1400 R11/1400U VV/// 07/07 Q1021 BECMG NSC=
METAR LFTH 220700Z AUTO VRB02KT CAVOK 18/14 Q1018 NOSIG=
METAR LFTW 220700Z AUTO 01005KT CAVOK 16/10 Q1019 NOSIG=
METAR LFWC 220700Z AUTO 07005KT 9999 NCD 16/14 Q1019=
METAR LFYR 220700Z AUTO 00000KT CAVOK 09/09 Q1020=
METAR LOAN 220700Z 36008KT 20KM FEW025CU SCT040SC BKN300CI RMK BKN=
METAR LOAV 220700Z 34010KT 18KM FEW020CU BKN040SC 13/09 RMK BKN=
METAR LOIH 220600Z 00000KT 15KM FEW007ST BKN030SC 11/10 Q1021 RMK BKN=
METAR LOWG 220720Z 20003KT 170V240 9999 FEW040 12/09 Q1022 NOSIG=
METAR LOWI 220720Z 06005KT 9999 FEW017 SCT050 11/09 Q1023 NOSIG=
METAR LOWK 220720Z VRB01KT 9999 FEW010 11/06 Q1023 NOSIG=
METAR LOWL 220720Z VRB02KT 9999 FEW014 12/08 Q1023 NOSIG=
METAR LOWS 220720Z VRB02KT 9999 FEW007 11/09 Q1023 NOSIG=
METAR LOWW 220720Z 01008KT 330V040 9999 FEW030 SCT060 12/08 Q1023 NOSIG=
METAR LOWZ 220700Z 00000KT 15KM FEW010SC SCT050SC 11/09 Q1022 RMK SCT=
METAR LOXA 220720Z VRB02KT 0900 1500W BCFG BKN005ST 06/06 Q1024 BECMG 2000 BR RMK BKN=
METAR LOXN 220720Z 35010KT 15KM SCT020CU 13/10 Q1023 RMK SCT=
METAR LOXT 220720Z VRB03KT 15KM FEW010ST SCT050SC 13/10 Q1023 NOSIG RMK SCT=
METAR LOXZ 220720Z VRB02KT 50KM FEW060CU 07/05 Q1023 NOSIG RMK FEW=
METAR LSGC 220720Z VRB01KT CAVOK 09/07 Q1022=
METAR LSGG 220720Z VRB01KT 9999 FEW018 11/09 Q1022 NOSIG=
METAR LSGS 220720Z VRB02KT 9999 SCT040 13/10 Q1022=
METAR LSMA 220650Z 00000KT 9000 SCT015 BKN018 11/10 Q1021 RMK WHT=
METAR LSMD 220650Z 00000KT 4700 BR SCT010 BKN012 08/07 Q1022 RMK GRN=
METAR LSME 220650Z 00000KT 5000 OVC016 11/10 Q1022 RMK WHT=
METAR LSMM 220650Z VRB02KT CAVOK 09/09 Q1021 RMK BLU=
METAR LSMP 220650Z 00000KT 1500 BR SCT001 BKN003 09/08 Q1022 RMK AMB=
METAR LSMS 220650Z 25003KT 9999 BKN040 13/10 Q1022=
METAR LSZA 220720Z VRB01KT 7000 FEW015 SCT028 BKN070 17/15 Q1021 NOSIG=
METAR COR LSZB 220720Z 00000KT 3500 BR FEW005 BKN010 09/09 Q1022 NOSIG=
METAR LSZC 220720Z AUTO 25003KT 210V290 9999 BKN016 12/10 Q1022=
METAR LSZG 220720Z 05003KT 1500 BR SCT003 BKN016 08/08 Q1022 NOSIG=
METAR LSZH 220720Z VRB01KT 5000 BR FEW009 SCT013 09/08 Q1022 TEMPO BKN013=
METAR LSZL 220650Z 23004KT 200V260 9999 FEW015 SCT030 BKN050 16/13 Q1020 RMK BLU=
METAR LSZR 220720Z 25003KT 210V280 4500 BR FEW008 BKN011 12/10 Q1022 NOSIG RMK D=
METAR COR LSZS 220720Z 04002KT 9999 FEW002 SCT022 02/02 Q1023 RMK D=
METAR EBAW 220720Z VRB01KT CAVOK 15/10 Q1020 NOSIG=
METAR EBBE 220655Z 21007KT 9999 SCT250 14/08 Q1021 BLU BLU=
METAR EBBL 220655Z VRB02KT 9999 FEW130 BKN220 12/09 Q1021 BLU BLU=
METAR EBBR 220720Z 20006KT CAVOK 15/10 Q1020 NOSIG=
METAR EBCI 220720Z 18005KT CAVOK 14/08 Q1021 NOSIG=
METAR EBCT 220655Z AUTO 16004KT 9999 BKN220/// 13/09 Q1021 BLU=
METAR EBCV 220655Z AUTO VRB02KT 9999 FEW190/// BKN240/// 13/10 Q1021 BLU=
METAR EBDT 220655Z 15004KT 9999 BKN240 10/08 Q1021 BLU BLU=
METAR EBFN 220655Z 12003KT 3000 BR SCT090 BKN230 13/12 Q1020 YLO YLO TEMPO AMB=
METAR EBFS 220655Z VRB01KT 9999 FEW150 SCT220 13/07 Q1021 BLU BLU=
METAR EBHH 220655Z AUTO 20003KT 9999 NCD 12/09 Q1021 BLU=
METAR EBLB 220655Z AUTO VRB01KT 9999 NCD 06/05 Q1022 BLU=
METAR EBLG 220720Z 17006KT 130V190 CAVOK 13/07 Q1021 NOSIG=
METAR EBOS 220720Z 16004KT 7000 FEW048 13/11 Q1020 NOSIG=
METAR EBSZ 220655Z AUTO 18005KT 9999 BKN190/// 14/10 Q1020 BLU=
METAR EHAK 220725Z AUTO 16016KT 9999 NSC 18/14 Q1018=
METAR EHAM 220725Z 16005KT CAVOK 13/10 Q1020 NOSIG=
METAR EHBK 220725Z AUTO 20006KT 9999 NCD 13/09 Q1021 NOSIG=
METAR EHDL 220725Z AUTO 13003KT 090V210 9999 FEW110/// 13/09 Q1021 BLU=
METAR EHDV 220725Z AUTO 17014KT 8000 NSC 18/15 Q1018=
METAR EHEH 220725Z AUTO 15005KT 090V240 9999 NCD 13/09 Q1020 BLU 15005KT CAVOK=
METAR EHFD 220725Z AUTO 18015KT 9999 NSC 18/12 Q1019=
METAR EHFZ 220725Z AUTO 19015KT 9999 NSC 18/15 Q1018=
METAR EHGG 220725Z AUTO 18003KT 150V220 9000 NCD 12/10 Q1020 NOSIG=
METAR EHGR 220725Z AUTO VRB03KT 9999 BKN290/// OVC370/// 11/09 Q1020 BLU 17004KT CAVOK=
METAR EHHW 220725Z AUTO 21010KT 9999 NSC 18/12 Q1020=
METAR EHJA 220725Z AUTO 17012KT 8000 NSC 18/15 Q1018=
METAR EHJR 220655Z AUTO 18010G11KT //// ///////// 19/14 Q1018 W///H6=
METAR EHKD 220725Z AUTO 16007KT 130V210 9999 BKN057/// OVC079/// 15/10 Q1019 BLU 18005KT CAVOK=
METAR EHKV 220725Z AUTO 18013KT 9999 NSC 19/15 Q1019=
METAR EHLW 220725Z AUTO 18005KT 150V210 9999 OVC270/// 14/10 Q1020 BLU 17005KT CAVOK=
METAR EHMA 220725Z AUTO 20012KT 9999 NSC 15/10 Q1020=
METAR EHMG 220725Z AUTO 18015KT 9999 NSC 21/12 Q1019=
METAR EHPG 220725Z AUTO 20013KT 160V300 9000 NSC 19/14 Q1019=
METAR EHQE 220725Z AUTO 18014KT 9999 FEW042/// 19/14 Q1019=
METAR EHRD 220725Z AUTO 15005KT 9999 NSC 15/12 Q1020 NOSIG=
METAR EHSA 220655Z AUTO 19013G14KT 9999 ///////// 19/13 Q1019 W19/H4=
METAR EHSC 220655Z AUTO 20012G13KT //// ///////// 18/15 Q1019 W20/H4=
METAR EHVK 220725Z AUTO 16004KT 110V170 9999 NCD 13/09 Q1021 BLU 16005KT CAVOK RMK CB INFO NOT AVBL=
METAR EHVL 220725Z AUTO 16009KT 9999 OVC080/// 17/12 Q1019 BLU=
METAR EHWO 220725Z AUTO VRB02KT 9999 OVC190/// 15/12 Q1020 BLU VRB02KT CAVOK BECMG 18005KT=
METAR ELLX 220720Z 07005KT CAVOK 12/08 Q1022 NOSIG=
METAR BGBW 220650Z 08008KT 050V110 9999 FEW120 04/M14 Q1011=
METAR BGGH 220650Z AUTO 17004KT 100V190 9999NDV NCD 00/M07 Q1011=
METAR BGJN 220650Z AUTO 07015KT 360V100 9999NDV BKN150/// 01/M17 Q1014=
METAR BGKK 220650Z AUTO 23003KT 9999NDV NCD 01/M07 Q1007=
METAR BGSF 220650Z AUTO 04007KT 9999NDV NCD M06/M12 Q1014=
METAR BGTL 220658Z AUTO 10006KT 9999 OVC040 M01/M04 A2984 RMK AO2 SLP090 T10151045 $=
METAR BIAR 220700Z 16011KT 9999 BKN049 09/05 Q0983=
METAR BIEG 220700Z 18025G38KT 9999 -RA SCT025 BKN035 10/04 Q0990=
METAR BIIS 220700Z 02030G40KT 9999 +RA SCT015 OVC020 06/05 Q0985=
METAR BIKF 220700Z 35003KT 9999 VCSH FEW012 SCT028 BKN035 08/07 Q0983=
METAR BIRK 220700Z 14003KT 110V170 9999 FEW030 SCT042 BKN048 06/04 Q0982=
METAR BIVM 220700Z 21011KT 9999 -RA SCT013 BKN035 OVC040 08/07 Q0985=
METAR EFET 220720Z AUTO 19006KT 130V220 9999 OVC007 08/07 Q1025=
METAR EFHA 220720Z 03006KT 9999 OVC032 08/05 Q1024=
METAR EFHF 220720Z VRB04KT 9999 BKN040 10/07 Q1022=
METAR EFHK 220720Z 02009KT 9999 BKN038 09/06 Q1022 NOSIG=
METAR EFIV 220720Z 19004KT 9999 FEW007 BKN022 10/09 Q1026=
METAR EFJO 220720Z 03007KT 360V070 9999 OVC031 09/06 Q1024=
METAR EFJY 220720Z 05005KT 9999 FEW015 BKN035 08/06 Q1024=
METAR EFKE 220720Z AUTO 12003KT 9999 -SHRA BKN091 08/06 Q1027=
METAR EFKI 220720Z 05005KT 9999 OVC030 08/04 Q1026=
METAR EFKK 220720Z 12005KT 080V160 9999 BKN033 08/04 Q1025=
METAR EFKS 220720Z AUTO 34001KT 9999 OVC017 07/05 Q1027=
METAR EFKT 220720Z AUTO 16003KT 9999 OVC004 10/09 Q1026=
METAR EFKU 220720Z VRB03KT 9999 FEW015 OVC037 09/06 Q1025=
METAR EFLP 220720Z AUTO 04007KT 360V070 9999 BKN013 BKN019 10/07 Q1022=
METAR EFMA 220720Z 05005KT 360V100 CAVOK 13/08 Q1022=
METAR EFMI 220720Z AUTO VRB03KT 9999 FEW013 OVC031 10/07 Q1023=
METAR EFOU 220720Z AUTO 10006KT 9999 OVC031/// 09/04 Q1027=
METAR EFPO 220720Z AUTO 06006KT 020V100 9999 FEW025/// 09/04 Q1024=
METAR EFRO 220720Z 15005KT 120V190 9999 FEW046 BKN095 07/04 Q1027=
METAR EFSA 220720Z AUTO 03005KT 350V100 9999 OVC011 09/07 Q1023=
METAR EFSI 220720Z AUTO 10006KT 040V140 9999 FEW025 08/04 Q1025=
METAR EFTP 220720Z 03004KT 9999 BKN029 08/04 Q1024=
METAR EFTU 220720Z AUTO 08007KT 9999 OVC031/// 09/05 Q1023=
METAR EFUT 220720Z 02006KT 340V060 9999 BKN012 BKN063 10/07 Q1022=
METAR EFVA 220720Z AUTO 13007KT 9999 BKN079/// 08/04 Q1025=
METAR EKAH 220720Z AUTO 09001KT 9999NDV NCD 13/11 Q1023=
METAR EKAV 220720Z AUTO ///// 9999NDV FEW023/// BKN180/// ///// Q1024=
METAR EKBI 220650Z AUTO 10006KT 9999NDV NCD 12/11 Q1022=
METAR EKCH 220720Z 12006KT CAVOK 16/10 Q1023 NOSIG=
METAR EKEB 220720Z AUTO 11005KT 050V140 9999NDV NCD 12/10 Q1021=
METAR EKGC 220720Z AUTO 19013KT 9999NDV 18/13 Q1019=
METAR EKGF 220720Z 17015KT CAVOK 17/14 Q1019=
METAR EKHA 220720Z AUTO 17014KT 9999NDV 18/13 Q1020=
METAR EKHD 220720Z AUTO 16017KT 9999NDV 17/14 Q1018=
METAR EKHN 220720Z AUTO 15014KT 9999NDV NCD 17/12 Q1022=
METAR EKHR 220720Z AUTO 15011KT 9999NDV +RA NCD 18/M44 Q1021=
METAR EKKA 220720Z AUTO 14006KT 110V170 9999NDV NCD 13/11 Q1022 NOSIG=
METAR EKOD 220650Z 10002KT CAVOK 10/09 Q1023=
METAR EKRK 220720Z AUTO 00000KT 9999NDV SCT050/// 14/12 Q1023=
METAR EKRN 220720Z AUTO 05002KT 9999NDV SCT062/// 16/10 Q1023=
METAR EKSB 220720Z 12004KT 9999 FEW012 SCT053 15/12 Q1022=
METAR EKSN 220650Z 19003KT 9999 FEW025 11/10 Q1022=
METAR EKSP 220720Z 13005KT CAVOK 14/12 Q1022 NOSIG=
METAR EKTE 220720Z AUTO 17015KT 9999NDV 18/14 Q1020=
METAR EKVD 220650Z 12006KT 100V160 CAVOK 13/11 Q1022=
METAR EKVG 220650Z AUTO 16011KT 9000NDV SCT010/// 10/09 Q1008=
METAR EKVJ 220650Z 12006KT CAVOK 10/09 Q1022=
METAR EKYT 220720Z 16003KT CAVOK 14/13 Q1022=
METAR ENAL 220720Z 14004KT 9999 BKN064 14/13 Q1019=
METAR ENAN 220720Z 25002KT CAVOK 10/10 Q1023=
METAR ENAT 220650Z 16004KT 110V190 CAVOK 10/07 Q1024 RMK WIND 700FT 16012KT=
METAR ENBL 220720Z VRB02KT CAVOK 12/09 Q1020=
METAR ENBN 220720Z 04003KT 310V090 CAVOK 16/11 Q1021=
METAR ENBO 220720Z 10011KT CAVOK 14/11 Q1021 NOSIG=
METAR ENBR 220720Z 13004KT 9999 FEW020 SCT060 BKN090 15/08 Q1019 NOSIG RMK WIND 1200FT 14012KT=
METAR ENBS 220650Z 22012KT 9999 SCT007 SCT028 09/08 Q1024=
METAR ENBV 220650Z 26007KT CAVOK 11/08 Q1024=
METAR ENCN 220720Z 06006KT 9999 SCT030 SCT068 13/12 Q1021=
METAR ENDR 220720Z AUTO 08003KT 14/11 Q1020=
METAR ENDU 220720Z 00000KT 9999 FEW060 SCT070 12/09 Q1023 NOSIG RMK WIND 1100FT 15005KT WIND 2200FT 13010KT=
METAR ENEK 220720Z 14021KT CAVOK 16/14 Q1017 W17/S3=
METAR ENEV 220650Z 00000KT 9999 BKN053 09/09 Q1023 RMK WIND 1400FT 11009KT=
METAR ENFB 220720Z AUTO 16031KT 9999NDV SCT010/// BKN089/// 14/14 Q1015 W///S4=
METAR ENFL 220720Z 11010KT 9999 FEW040 16/09 Q1019=
METAR ENGC 220650Z 19031KT 9000 FEW006 14/13 Q1016 W12/S4=
METAR ENGM 220720Z 19004KT 4800 -SHRA BR BKN002 13/13 Q1022 TEMPO 7000 BKN008=
METAR ENHD 220720Z 12006KT CAVOK 15/12 Q1019=
METAR ENHE 220720Z 19010KT 9999 FEW015 BKN095 14/10 Q1020 W///S3=
METAR ENHF 220720Z 24009KT 9999 FEW045 BKN070 10/08 Q1023 RMK WIND 1254FT 21007KT=
METAR ENHM 220720Z 15026KT 9000 FEW008 15/14 Q1015 W15/S4=
METAR ENKB 220720Z 08003KT 9999 FEW003 SCT047 13/13 Q1020=
METAR ENKR 220720Z 18005KT 9999 BKN006 10/10 Q1025 RMK WIND 731FT 23012KT=
METAR ENLA 220720Z AUTO 15026KT 9999NDV BKN140/// 16/14 Q1016 W///S4=
METAR ENLK 220650Z 05002KT CAVOK 10/10 Q1022=
METAR ENMH 220650Z 15011KT CAVOK 11/07 Q1023=
METAR ENML 220720Z 07007KT 9999 -SHRA FEW007 SCT066 BKN078 14/13 Q1020=
METAR ENMS 220720Z 00000KT CAVOK 10/09 Q1022 RMK WIND 412FT VRB01KT=
METAR ENNA 220720Z 17012KT CAVOK 11/08 Q1024 RMK WIND 1800FT 26003KT=
METAR ENNE 220720Z 16006KT 0200 FG -RA VV001 12/12 Q1020 W///S4=
METAR ENNM 220720Z 05006KT CAVOK 15/12 Q1021=
METAR ENOA 220720Z 16028KT 9000 FEW015 14/14 Q1016 W///S4=
METAR ENOL 220720Z VRB01KT 3000 2000NE -DZ BR VV002 13/13 Q1021 TEMPO 1000 BR VV002=
METAR ENOV 220650Z VRB02KT CAVOK 13/10 Q1019 RMK WIND 2175FT 14014KT=
METAR ENQC 220720Z AUTO 14023KT 9999NDV NCD 14/13 Q1017 W///S4=
METAR ENQR 220720Z AUTO 15025KT 9000NDV FEW005/// 14/13 Q1015 W///S4=
METAR ENRA 220720Z 32001KT 9999 FEW001 BKN110 10/09 Q1023=
METAR ENRM 220720Z 21004KT 9999 FEW040 BKN110 15/12 Q1021=
METAR ENRO 220720Z VRB02KT 9999 FEW027 BKN100 10/10 Q1022=
METAR ENRS 220650Z 09012KT 9999 FEW005 BKN080 11/11 Q1021=
METAR ENRY 220720Z 10003KT CAVOK 13/13 Q1023 NOSIG=
METAR ENSB 220720Z 25011KT 5000 -DZ BR VV018 04/03 Q1011 TEMPO VV012 RMK WIND 1400FT 23014KT=
METAR ENSD 220720Z 03005KT 9999 FEW005 SCT073 13/12 Q1020 RMK WIND 1138FT 09004KT=
METAR ENSE 220720Z AUTO 17030KT 9999NDV BKN086/// 14/13 Q1015 W///S4=
METAR ENSF 220720Z AUTO 16031KT 8000NDV FEW010/// BKN020/// BKN090/// 15/13 Q1015 W///S4=
METAR ENSG 220650Z 08004KT 0400 FG VV006 11/11 Q1021 RMK WIND 3806FT 11003KT=
METAR ENSH 220650Z 04007KT CAVOK 10/10 Q1022=
METAR ENSK 220650Z VRB02KT 9999 1000W PRFG FEW001 SCT003 10/09 Q1022=
METAR ENSL 220720Z 15030KT 9999 FEW012 16/13 Q1015 W14/S4=
METAR ENSO 220720Z 11007KT 9999 FEW013 BKN060 15/10 Q1019=
METAR ENSR 220720Z 15008KT CAVOK 10/07 Q1024 WIND 1119FT 12009KT=
METAR ENSS 220650Z 21010KT 9999 FEW008 SCT036 10/08 Q1024 RMK WIND 500FT 22017KT=
METAR ENST 220720Z VRB01KT CAVOK 13/12 Q1021 RMK WIND 300FT 36003KT=
METAR ENTC 220720Z 00000KT 9999 BKN062 09/08 Q1024 NOSIG RMK WIND 2600FT 19006KT=
METAR ENTO 220720Z 36001KT 4100 VCFG SCT045 BKN100 14/14 Q1022=
METAR ENUG 220720Z AUTO 26010KT 9999NDV SCT038/// BKN062/// 11/10 Q1021 W///S4=
METAR ENVA 220720Z 26003KT CAVOK 14/13 Q1020 NOSIG RMK WIND 670FT 30004KT=
METAR ENVD 220650Z VRB02KT 9999 BKN014 10/09 Q1025=
METAR ENVH 220720Z AUTO 16018KT 9999NDV NCD 17/14 Q1017 W///S3=
METAR ENVR 220650Z 03009KT CAVOK 13/11 Q1022=
METAR ENZV 220720Z 10005KT 9999 FEW033 SCT059 BKN096 16/12 Q1019 TEMPO SHRA=
METAR ESCF 220720Z VRB02KT CAVOK 10/10 Q1023=
METAR ESDF 220720Z VRB01KT CAVOK 10/09 Q1023=
METAR ESGG 220720Z 18003KT CAVOK 13/10 Q1023=
METAR ESGJ 220720Z 00000KT CAVOK 09/08 Q1023=
METAR ESGP 220720Z VRB02KT CAVOK 13/10 Q1023=
METAR ESGR 220720Z AUTO 00000KT 9999 FEW088/// BKN120/// 10/08 Q1023=
METAR ESGT 220720Z 15004KT CAVOK 12/10 Q1023=
METAR ESIB 220720Z VRB02KT CAVOK 12/10 Q1023=
METAR ESKM 220720Z AUTO 04003KT 9999 SCT005/// BKN008/// BKN029/// 12/12 Q1023=
METAR ESKN 220720Z 36004KT 330V050 CAVOK 13/10 Q1022=
METAR ESMK 220720Z VRB01KT CAVOK 12/10 Q1023=
METAR ESMQ 220720Z VRB02KT CAVOK 13/10 Q1023=
METAR ESMS 220720Z 10002KT CAVOK 14/10 Q1023=
METAR ESMT 220720Z 06002KT CAVOK 13/09 Q1023=
METAR ESMX 220720Z 00000KT CAVOK 10/09 Q1023=
METAR ESND 220720Z AUTO 08005KT 9999 OVC002/// ///// Q1023=
METAR ESNG 220720Z 17006KT 9999 BKN009 OVC015 08/07 Q1025=
METAR ESNK 220720Z VRB02KT 9999 FEW020 BKN042 12/11 Q1024=
METAR ESNL 220720Z AUTO VRB02KT 6000 BR OVC004/// 11/09 Q1025=
METAR ESNN 220720Z 00000KT 9999 BKN049 12/10 Q1024=
METAR ESNO 220720Z VRB02KT 9999 OVC028 11/08 Q1024=
METAR ESNQ 220720Z VRB03KT 9999 OVC003 07/07 Q1024=
METAR ESNS 220720Z 36003KT 1500 BR OVC002 10/10 Q1025=
METAR ESNU 220720Z 02004KT 9999 BKN007 12/11 Q1025=
METAR ESNV 220720Z 29002KT 9999 FEW003 SCT004 OVC015 10/07 Q1025=
METAR COR ESNX 220720Z 14003KT 080V160 6000 BR OVC002 08/08 Q1025=
METAR ESNZ 220720Z 14006KT 9999 SCT009 SCT020 11/10 Q1023=
METAR ESOE 220720Z 36003KT CAVOK 12/09 Q1023=
METAR ESOK 220720Z VRB02KT 9999 SCT015 BKN037 13/11 Q1023=
METAR ESOW 220720Z 01006KT CAVOK 11/09 Q1023=
METAR ESPA 220720Z 14008KT 9999 BKN011 11/09 Q1026=
METAR ESPE 220720Z VRB01KT 9999 FEW002 SCT004 BKN007 09/09 Q1026=
METAR ESSA 220720Z 36005KT CAVOK 12/10 Q1022 NOSIG=
METAR ESSB 220720Z 01004KT 330V060 CAVOK 13/10 Q1022=
METAR ESSD 220720Z 11002KT 9999 BKN026 11/10 Q1024=
METAR ESSL 220720Z 29002KT CAVOK 12/10 Q1023=
METAR ESSP 220720Z 00000KT CAVOK 12/10 Q1023=
METAR ESST 220720Z 00000KT 9999 BKN005 OVC025 14/14 Q1023=
METAR ESSV 220720Z 35006KT 9999 FEW020 14/10 Q1022=
METAR ESTA 220720Z 13003KT CAVOK 12/09 Q1023=
METAR ESTL 220720Z 12002KT CAVOK 09/07 Q1024=
METAR ESUD 220720Z AUTO VRB02KT 9999 FEW005/// OVC009/// 10/09 Q1025=
METAR COR ESUP 220720Z 18003KT 9999 OVC011 10/09 Q1026=
METAR ESUT 220720Z AUTO 15006KT 9999 OVC011/// 10/09 Q1024=
METAR LIBA 220655Z 30006KT 9999 FEW035 SCT060 17/14 Q1016=
METAR LIBC 220650Z 35003KT 9999 SCT060 20/16 Q1016=
METAR LIBD 220720Z 31007KT 9999 FEW020 20/16 Q1016=
METAR LIBE 220655Z 33008KT 9999 SCT013 13/11 Q1016 RMK BKN SCT090 MON LIB VAL NIL VIS MIN 9999=
METAR LIBF 220650Z 28008KT 9999 BKN035 18/16 Q1017=
METAR LIBG 220650Z 35005KT 310V030 CAVOK 21/15 Q1015=
METAR LIBH 220655Z 31008KT 9999 FEW035 19/17 Q1015 RMK SCT QUK 1 QUL 1 NW VIS MAR 20 KM VIS MIN 9999=
METAR LIBN 220655Z 10005KT 9999 FEW013 19/18 Q1015=
METAR LIBP 220650Z 20003KT 170V240 9999 FEW030 BKN060 18/16 Q1018=
METAR LIBQ 220655Z 28005KT 9999 BKN010 SCT046 10/08 Q1019=
METAR LIBR 220715Z 30011KT 9999 FEW020 21/18 Q1016 NOSIG=
METAR LIBS 220655Z 31001KT 8000 SCT002 BKN005 12/11 Q1019 RMK OVC MON INVIS VAR RAPID VIS MIN 4000SE=
METAR LIBT 220655Z 27007KT 9999 SCT025 20/14 Q1017 RMK BKN BKN070 QUK 2 QUL 1 NW VIS MAR 15 KM VIS MIN 9999=
METAR LIBU 220655Z 14001KT 0500 FG VV/// 14/13 Q1018 RMK MON INVIS VAL INVIS VIS MIN 0500=
METAR LIBV 220655Z 32007KT CAVOK 17/16 Q1016=
METAR LIBW 220655Z 30006KT CAVOK 19/16 Q1016 RMK BKN BKN053 QUK 2 QUL 1 W VIS MAR 16 KM MON LIB VAL NIL VIS MIN 9999=
METAR LIBY 220655Z 03009KT 9999 FEW018 20/17 Q1015 RMK SCT QUK 1 QUL 1 N VIS MAR 20 KM VIS MAX 20 KM VIS MIN 9999=
METAR LICA 220650Z VRB02KT 9999 SCT020 21/19 Q1016=
METAR LICB 220650Z VRB02KT CAVOK 21/14 Q1018=
METAR LICC 220720Z 26008KT CAVOK 23/12 Q1017=
METAR LICD 220650Z 31006KT 290V350 9999 FEW020 25/18 Q1019=
METAR LICE 220655Z 32004KT CAVOK 15/10 Q1017 RMK SKC MON LIB NC VAL NIL NC VIS MIN 9999=
METAR COR LICF 220655Z 35004KT 9999 FEW020CB SCT025 22/17 Q1015 RMK BKN QUK 1 QUL 0 VIS MAR 20 KM MON CIME INC NC VIS MIN 9999SE=
METAR LICG 220655Z /////KT 9999 FEW005 SCT015 22/19 Q1018=
METAR LICJ 220720Z 36011KT 9000 VCSH SCT025 22/18 Q1018=
METAR LICL 220655Z VRB02KT 9999 FEW020 21/17 Q1017 RMK FEW QUK 1 QUL 0 VIS MAR 25 KM VIS MIN 9999=
METAR LICO 220655Z 30006KT CAVOK 22/16 Q1015 RMK SKC QUK 0 QUL 0 VIS MAR 30 KM VIS MIN 9999=
METAR LICR 220650Z 35005KT 9999 VCSH SCT040 23/15 Q1016=
METAR LICT 220655Z 29012KT 9999 FEW020 23/17 Q1017=
METAR LICU 220655Z 35003KT 9999 SCT017 22/16 Q1018 RMK BKN SCT060 QUK 1 QUL 0 VIS MAR 18 KM VIS MIN 9999=
METAR LICX 220655Z 26008KT 9999 SCT006 15/12 Q1019 RMK SCT MON CLD SCT NC VAL NIL NC VIS MIN 9999=
METAR LICZ 220655Z 28010KT CAVOK 24/18 Q1017=
METAR LIEA 220720Z 00000KT 9999 FEW025 22/16 Q1018=
METAR LIEB 220655Z 24002KT 9999 FEW035 21/10 Q1016 RMK FEW QUK 1 QUL 0 VIS MAR 30 KM MON LIB VIS MIN 9999=
METAR LIEC 220655Z 27010KT 9999 FEW020 20/18 Q1017 RMK FEW QUK 2 QUL 0 VIS MAR 30 KM VIS MIN 9999=
METAR LIED 220655Z 00000KT 9999 FEW003 17/14 Q1017=
METAR LIEE 220720Z 32003KT CAVOK 19/16 Q1018=
METAR LIEF 220655Z 02003KT 9999 FEW025 24/22 Q1018 RMK FEW QUK 2 QUL 9 VIS MAR 20 KM VIS MIN 9999=
METAR LIEH 220655Z 32010KT CAVOK 22/17 Q1018 RMK SKC QUK 3 QUL 0 VIS MAR 20 KM VIS MIN 9999=
METAR LIEO 220720Z 25006KT 220V310 9999 -RA FEW030TCU SCT035 22/15 Q1018=
METAR LIEP 220655Z 29009KT 9999 FEW015 16/11 Q1018 RMK FEW VIS MIN 9999=
METAR LIMC 220720Z VRB02KT 8000 SCT040 17/14 Q1020 NOSIG=
METAR LIME 220720Z 08002KT 9999 BKN030 17/13 Q1021=
METAR LIMF 220720Z VRB01KT CAVOK 16/12 Q1021=
METAR LIMG 220650Z 23004KT CAVOK 15/12 Q1018=
METAR LIMH 220655Z /////KT CAVOK M03/M11 Q1026=
METAR LIMJ 220720Z 02011KT 350V050 CAVOK 20/11 Q1019=
METAR LIMK 220655Z 00000KT 4000 BR NSC 13/13 Q1020=
METAR LIML 220720Z VRB02KT 9999 BKN035 18/11 Q1020 NOSIG=
METAR LIMN 220655Z 00000KT 6000 FEW020 SCT040 15/13 Q1020=
METAR LIMP 220650Z VRB03KT 3500 BR SCT040 BKN050 16/13 Q1020=
METAR LIMS 220655Z 25003KT 4000 BR SCT006 BKN020 14/14 Q1019=
METAR LIMT 220655Z 00000KT 0000 FG VV/// 09/07 Q1020=
METAR LIMU 220655Z 32005KT CAVOK 18/11 Q1018=
METAR LIMV 220655Z /////KT 6000 2000N SCT009 SCT012 14/12 Q1020=
METAR LIMY 220655Z 01001KT CAVOK 12/10 Q1021=
METAR LIMZ 220650Z VRB02KT 9000 SCT025 BKN035 13/11 Q1021=
METAR LIPA 220655Z 05004KT 9999 FEW050 BKN070 16/14 Q1021=
METAR LIPB 220650Z VRB02KT 9999 SCT045 SCT070 17/11 Q1020=
METAR LIPC 220655Z 28008KT 9999 FEW050 17/15 Q1019=
METAR LIPE 220720Z VRB02KT 9999 BKN070 17/14 Q1020=
METAR LIPF 220655Z 29002KT 9999 BKN060 14/11 Q1019=
METAR LIPH 220720Z 02003KT 340V070 9999 BKN050 17/11 Q1020=
METAR LIPI 220655Z /////KT 9999 BKN070 15/10 Q1020=
METAR LIPL 220655Z /////KT 9999 BKN040 SCT080 17/13 Q1020=
METAR LIPO 220650Z 04002KT 9999 BKN040 18/12 Q1020=
METAR LIPQ 220720Z 07004KT 9999 FEW090 19/08 Q1020=
METAR LIPR 220715Z 29006KT 9000 NSC 18/16 Q1019=
METAR LIPS 220655Z 01004KT 9999 SCT050 BKN060 16/11 Q1020=
METAR LIPU 220650Z VRB03KT 9999 BKN040 15/11 Q1020=
METAR LIPX 220720Z 11003KT 090V160 9999 BKN050 17/12 Q1020=
METAR LIPY 220650Z 35007KT CAVOK 20/10 Q1018=
METAR LIPZ 220720Z 03010KT 9999 BKN070 17/09 Q1020 NOSIG=
METAR LIQB 220655Z 00000KT CAVOK 16/11 Q1018 RMK SKC VIS MIN 9999=
METAR LIQC 220655Z ///04KT 9999 SCT030 19/17 Q1015 RMK SCT QUK 2 QUL 1 SE VIS MAR 20 KM VIS MIN 9999=
METAR LIQJ 220655Z 08004KT 040V170 CAVOK 22/14 Q1016 RMK SCT SCT070 QUK 2 QUL 0 VIS MAR 25 KM VIS MIN 9999=
METAR LIQK 220655Z /////KT 9999 FEW040 19/16 Q1015 RMK FEW QUK 1 QUL 0 VIS MAR 15 KM VIS MIN 9999=
METAR LIQN 220650Z 00000KT 0300 FG VV/// 12/12 Q1017=
METAR LIQO 220655Z 06016KT CAVOK 17/12 Q1016=
METAR LIQR 220655Z 07004KT 9999 FEW020 12/08 Q1022 RMK FEW MON LIB NC VAL NIL NC VIS MIN 9999=
METAR LIQW 220655Z 31006KT CAVOK 16/14 Q1018=
METAR LIQZ 220655Z 09012KT 9999 SCT020 21/19 Q1015 RMK SCT QUK 3 QUL 2 E VIS MAR 10 KM VIS MIN 9999=
METAR LIRA 220720Z 01007KT CAVOK 19/15 Q1016=
METAR LIRB 220655Z 02007KT CAVOK 19/13 Q1017 RMK SCT SCT080 VIS MIN 9999=
METAR LIRE 220655Z 02009KT 9999 FEW020 19/16 Q1014=
METAR LIRF 220720Z 05010KT CAVOK 20/14 Q1016 NOSIG=
METAR LIRG 220655Z 28003KT CAVOK 18/15 Q1016=
METAR LIRH 220655Z 08003KT 9999 FEW010 SCT030 17/14 Q1016=
METAR LIRK 220655Z AUTO 14007KT 040V150 //// 07/07 Q1021=
METAR LIRL 220655Z 34003KT 9999 FEW025 20/17 Q1015=
METAR LIRM 220655Z 04006KT 9999 SCT020 SCT030 19/17 Q1015=
METAR LIRN 220720Z 05005KT 010V080 9999 SCT040 19/15 Q1016 NOSIG=
METAR LIRP 220715Z 03002KT CAVOK 17/16 Q1018 NOSIG=
METAR LIRQ 220720Z VRB04KT 9999 FEW080 22/11 Q1018=
METAR LIRS 220655Z 09002KT CAVOK 18/13 Q1016=
METAR LIRT 220655Z 25003KT 0000 FG VV/// 12/10 Q1018=
METAR LIRU 220650Z VRB03KT CAVOK 18/15 Q1016=
METAR LIRV 220655Z 05009KT CAVOK 17/13 Q1017=
METAR LIRX 220655Z 05006KT CAVOK 17/13 Q1016=
METAR LIRZ 220650Z 36007KT CAVOK 18/11 Q1018=
METAR LIVC 220655Z 03015KT 0000 FG VV000 04/03 Q1023=
METAR LIVD 220655Z /////KT 9999 BKN025 09/08 Q1022=
METAR LIVE 220655Z 05004KT CAVOK 07/06 Q1020=
METAR LIVF 220655Z 24004KT 9999 FEW027 14/07 Q1020=
METAR LIVO 220655Z 17001KT 9999 FEW036 09/07 Q1021=
METAR LIVP 220655Z 00000KT 0600 FG VV/// 05/03 Q1021=
METAR LIVR 220655Z 31003KT 0100 FG VV/// 04/02 Q1020=
METAR LIVT 220655Z 06007G21KT CAVOK 18/07 Q1019=
METAR BKPR 220730Z 01006KT 9999 FEW040 BKN080 11/05 Q1020 NOSIG =
METAR LATI 220720Z VRB02KT 9000 FEW004 SCT040 20/17 Q1016 NOSIG=
METAR COR LDDU 220700Z 04012KT 010V070 9999 SCT031 18/08 Q1016 NOSIG=
METAR LDOS 220700Z 27004KT 9999 SCT043 11/09 Q1021=
METAR LDPL 220700Z 05010KT CAVOK 17/07 Q1019 NOSIG=
METAR LDRI 220700Z 09008KT 040V120 9999 FEW047 18/04 Q1019=
METAR LDSP 220700Z 06005KT 030V100 CAVOK 20/04 Q1017 NOSIG=
METAR LDZA 220700Z 00000KT CAVOK 11/10 Q1021 NOSIG=
METAR LDZD 220700Z 11003KT 060V170 CAVOK 18/08 Q1018 NOSIG=
METAR LJCE 220700Z 25004KT 220V280 9999 FEW003 10/08 Q1022 RMK BLU=
METAR LJLJ 220700Z VRB01KT 9999 FEW003 10/08 Q1022 NOSIG=
METAR LJMB 220700Z VRB01KT CAVOK 12/08 Q1022=
METAR LJPZ 220700Z VRB01KT CAVOK 16/08 Q1020=
METAR LQBK 220700Z 18003KT 9999 FEW013 12/10 Q1021 NOSIG=
METAR LQMO 220700Z 13004KT 9999 FEW050 15/07 Q1016=
METAR LQSA 220700Z VRB02KT 3500 BR SCT007 BKN015 09/07 Q1022 BECMG NSW=
METAR LQTZ 220700Z VRB01KT 0350 R09/0325N FG OVC002 08/08 Q1021=
METAR LWOH 220730Z 34010KT 9999 BKN040 13/07 Q1018=
METAR LWSK 220700Z 19003KT 9999 FEW033 SCT080 15/08 Q1019 NOSIG=
METAR LYBE 220700Z 25006KT 230V290 CAVOK 12/10 Q1021 NOSIG=
METAR LYBT 220700Z 23003KT 170V250 CAVOK 11/10 Q1020 NOSIG=
METAR LYKV 220700Z VRB01KT 9999 FEW010 11/08 Q1021 NOSIG=
METAR LYNI 220700Z VRB01KT CAVOK 12/07 Q1021 NOSIG=
METAR LYPG 220700Z 34008KT 9999 FEW033 SCT040 19/08 Q1016 NOSIG=
METAR LYTV 220700Z VRB02KT 9999 FEW040 SCT050 20/10 Q1015 NOSIG=
METAR LYUZ 220700Z 31006KT 270V340 9999 FEW020 09/09 Q1020=
METAR LYVR 220700Z VRB02KT CAVOK 11/09 Q1020 NOSIG=
METAR GCFV 220700Z 35007KT 9999 FEW030 20/17 Q1020=
METAR GCGM 220700Z 29006KT 9999 FEW025 19/14 Q1021 RMK R09/31005KT ARP/31006KT=
METAR GCHI 220700Z 01010KT 340V040 9999 FEW023 22/18 Q1021=
METAR GCLA 220700Z 29011KT 260V320 9999 SCT040 22/14 Q1021=
METAR GCLP 220700Z 36013KT 9999 FEW030 22/16 Q1020 NOSIG=
METAR GCRR 220700Z 02007KT 9999 FEW025 SCT035 20/17 Q1020=
METAR GCTS 220700Z 36006KT 9999 FEW019 20/13 Q1020 NOSIG=
METAR GCXO 220700Z 32007KT 280V020 9999 FEW003 BKN012 17/15 Q1023 NOSIG=
METAR LEAB 220700Z 00000KT CAVOK 13/09 Q1020 NOSIG=
METAR LEAG 220700Z AUTO 08003KT CAVOK 21/16 Q1018=
METAR LEAL 220700Z 35003KT 300V060 9999 FEW010 22/18 Q1017 NOSIG=
METAR LEAM 220700Z 00000KT 9999 FEW080 21/13 Q1016=
METAR LEAO 220700Z 00000KT CAVOK 11/03 Q1019=
METAR LEAS 220700Z VRB01KT 9999 BKN043 16/15 Q1019 NOSIG=
METAR LEBA 220700Z 26003KT 240V300 9999 OVC014 18/15 Q1019=
METAR LEBB 220700Z 00000KT 9000 FEW020 SCT030 BKN045 18/17 Q1019 NOSIG=
METAR LEBG 220700Z 17001KT 7000 NSC 09/08 Q1020=
METAR LEBL 220700Z 32009KT 280V020 9999 FEW025 19/14 Q1019 NOSIG=
METAR LEBT 220700Z AUTO 00000KT 9999 // NCD 17/16 Q1019=
METAR LEBZ 220700Z 00000KT 8000 NSC 13/11 Q1019=
METAR LECH 220700Z AUTO VRB01KT 9999 NCD 16/14 Q1019=
METAR LECO 220700Z 00000KT 9999 FEW035 14/13 Q1020 NOSIG=
METAR LECV 220700Z 00000KT CAVOK 18/02 Q1020=
METAR LEEC 220700Z VRB02KT 7000 BKN021 18/17 Q1018=
METAR LEGA 220700Z 18002KT CAVOK 16/06 Q1020=
METAR LEGE 220700Z VRB01KT 9999 VCFG FEW070 15/14 Q1019=
METAR LEGR 220700Z 00000KT 9999 FEW050 SCT070 14/08 Q1020=
METAR LEGT 220700Z 09003KT CAVOK 14/03 Q1019=
METAR LEHC 220700Z 36001KT CAVOK 15/07 Q1020=
METAR LEIB 220700Z 33003KT 240V010 9999 FEW015 21/20 Q1017 NOSIG=
METAR LEJR 220700Z VRB02KT 9000 SCT023 19/17 Q1018=
METAR LELC 220700Z VRB01KT CAVOK 19/17 Q1017 NOSIG=
METAR LELL 220700Z 00000KT CAVOK 17/16 Q1019=
METAR LELN 220700Z 00000KT CAVOK 10/09 Q1020=
METAR LELO 220700Z 00000KT CAVOK 12/09 Q1020=
METAR LEMD 220700Z 01003KT CAVOK 11/04 Q1019 NOSIG=
METAR LEMG 220700Z 00000KT CAVOK 20/12 Q1017 NOSIG=
METAR LEMH 220700Z 05004KT 9999 FEW020 22/18 Q1018=
METAR LEMO 220700Z 09002KT 7000 FEW018 16/15 Q1019 NOSIG=
METAR LEPA 220700Z VRB02KT 9999 FEW002 19/19 Q1018 NOSIG=
METAR LEPP 220700Z 17002KT 9999 FEW010 12/11 Q1020=
METAR LERI 220700Z 00000KT CAVOK 18/14 Q1018 NOSIG=
METAR LERS 220700Z 03005KT 350V060 9999 FEW022 19/16 Q1019=
METAR COR LERT 220700Z VRB02KT 9999 BKN020 21/17 Q1018 NOSIG=
METAR LESA 220700Z 00000KT CAVOK 07/06 Q1020=
METAR LESO 220700Z VRB02KT 9999 FEW017 SCT030 17/16 Q1019=
METAR LEST 220700Z 00000KT 7000 BCFG SCT005 BKN008 14/13 Q1020 TEMPO 3000 BR=
METAR LETO 220700Z 03003KT CAVOK 10/03 Q1020 NOSIG=
METAR LEVC 220700Z 33004KT 9999 FEW025 19/16 Q1018 NOSIG=
METAR LEVD 220700Z 08003KT CAVOK 09/07 Q1019=
METAR LEVS 220700Z 00000KT CAVOK 17/03 Q1019=
METAR LEVT 220700Z 00000KT 8000 FEW008 SCT019 14/13 Q1020=
METAR LEVX 220700Z 00000KT 6000 VCFG FEW040 14/13 Q1019 NOSIG=
METAR LEXJ 220700Z 00000KT 9999 SCT023 BKN034 15/14 Q1019=
METAR LEZG 220700Z 30003KT 270V340 CAVOK 15/11 Q1019=
METAR LEZL 220700Z 07002KT 7000 SCT020 18/16 Q1018 NOSIG=
METAR LPAZ 220700Z 34005KT 9999 FEW012 BKN038 21/18 Q1022=
METAR LPBJ 220700Z 29006KT CAVOK 11/11 Q1020=
METAR LPCS 220700Z 32003KT 9999 FEW017 15/12 Q1020=
METAR LPFR 220700Z VRB01KT CAVOK 17/11 Q1018=
METAR LPHR 220700Z 07005KT 9999 FEW015 SCT040 20/18 Q1021=
METAR LPLA 220700Z /////KT 9999 SCT014 SCT030 19/18 Q1022=
METAR LPMA 220700Z 35005KT 9999 FEW016 20/15 Q1022=
METAR LPPD 220700Z 34007KT 9999 FEW016 20/17 Q1021=
METAR LPPR 220700Z 00000KT 9999 FEW040 12/12 Q1019=
METAR LPPS 220700Z 34004KT 9999 FEW015 19/16 Q1022=
METAR LPPT 220700Z 31006KT 280V340 9999 FEW010 15/13 Q1019=
METAR LXGB 220650Z 20009KT 9999 FEW024 BKN250 21/16 Q1018 NOSIG=
METAR LCEN 220720Z 29007KT 9999 FEW025TCU 28/15 Q1012 NOSIG=
METAR LCLK 220700Z 24010KT 200V260 9999 FEW020TCU 29/18 Q1012 NOSIG=
METAR LCPH 220700Z 26012KT 9999 FEW020TCU SCT040 27/20 Q1013=
METAR LCRA 220650Z 28012KT 9999 FEW030 27/18 Q1013 BLU NOSIG=
METAR LGAD 220720Z 00000KT 9999 FEW020 25/17 Q1014=
METAR LGAL 220720Z 02010KT 9999 SCT025 15/11 Q1016=
METAR LGAV 220720Z VRB01KT 9999 FEW020 21/17 Q1015 NOSIG=
METAR LGBL 220720Z 29009KT 9999 SCT030 BKN080 19/15 Q1016 NOSIG=
METAR LGEL 220720Z 00000KT 9999 FEW018 SCT025 24/15 Q1014=
METAR LGHI 220650Z 04004KT 9999 FEW020 BKN080 22/16 Q1013=
METAR LGIO 220720Z /////KT 9999 FEW004 SCT025 BKN080 17/15 Q1016=
METAR LGIR 220720Z 35005KT 9999 FEW020 SCT080 26/19 Q1014 NOSIG=
METAR LGKF 220650Z 34004KT 9999 FEW018 22/18 Q1015=
METAR LGKL 220720Z 00000KT 9999 FEW030 23/17 Q1014=
METAR COR LGKO 220720Z 30005KT 250V350 9999 FEW018 24/17 Q1014=
METAR LGKP 220720Z 27014KT 9999 FEW018 BKN025 24/16 Q1014=
METAR LGKR 220720Z 00000KT 9999 FEW025TCU BKN080 22/19 Q1014 NOSIG=
METAR LGKV 220720Z 05007KT 9999 FEW025 SCT040 18/15 Q1016=
METAR LGKZ 220650Z /////KT 8000 FEW004 BKN025 OVC070 11/09 Q1017 RERA=
METAR LGLM 220720Z 04016KT 9999 FEW018 SCT080 19/15 Q1015=
METAR LGMK 220650Z 01004KT 9999 SCT018 BKN080 23/17 Q1013=
METAR LGMT 220720Z 00000KT 9999 FEW025 SCT030 BKN100 20/16 Q1014=
METAR LGNX 220650Z 32004KT 9999 FEW020 SCT080 24/18 Q1013=
METAR LGPA 220650Z VRB02KT 9999 FEW030 24/18 Q1013=
METAR LGPZ 220720Z VRB03KT 9999 FEW018 SCT080 23/17 Q1015=
METAR LGRP 220720Z 27007KT 9999 FEW018 26/17 Q1012 NOSIG=
METAR LGRX 220720Z 00000KT 9999 FEW020 23/20 Q1015=
METAR LGSA 220720Z 32012KT 9999 FEW020TCU SCT080 25/18 Q1014=
METAR LGSK 220650Z 01006KT 9999 FEW012 BKN030 OVC080 18/17 Q1015=
METAR LGSM 220650Z 00000KT 9999 FEW025 SCT080 22/16 Q1013=
METAR LGSO 220650Z 00000KT 9999 FEW018TCU BKN090 23/17 Q1014=
METAR LGSR 220720Z 09005KT 9999 FEW015 FEW020TCU SCT080 24/19 Q1013=
METAR LGTS 220720Z 34006KT 9999 -RA FEW008 FEW020TCU SCT035 17/10 Q1017 NOSIG=
METAR LGZA 220720Z VRB02KT 9999 FEW018 22/19 Q1015=
METAR LTAC 220720Z VRB03KT 9999 SCT040 16/08 Q1017 NOSIG=
METAR LTAF 220720Z 07007KT 020V110 9999 SCT036 27/20 Q1011 NOSIG=
METAR LTAG 220720Z 06006KT 9999 SCT030 26/18 Q1012 NOSIG=
METAR LTAI 220720Z 02005KT 340V050 9999 SCT030 27/14 Q1012 NOSIG=
METAR LTAJ 220720Z VRB02KT 9999 SCT035 23/16 Q1015 NOSIG=
METAR LTAL 220650Z 31006KT 9999 -SHRA SCT006 BKN025 09/08 Q1017=
METAR LTAN 220650Z 02005KT 320V050 9999 SCT040 BKN090 15/11 Q1018 NOSIG=
METAR LTAP 220720Z 01010KT 9999 FEW020 SCT030 BKN090 16/11 Q1015 NOSIG=
METAR LTAR 220650Z 21006KT 190V250 9999 FEW030CB BKN035 10/09 Q1018=
METAR LTAS 220650Z 09004KT 050V120 7000 SCT027 BKN180 16/14 Q1016=
METAR LTAT 220720Z 05006KT 9999 SCT040 BKN100 22/13 Q1015 NOSIG=
METAR LTAU 220720Z 00000KT 9999 SCT040 BKN100 15/11 Q1017 NOSIG=
METAR LTAW 220650Z 04010KT 9999 SCT030 BKN090 18/12 Q1015=
METAR LTAY 220650Z 10003KT 050V150 9999 FEW035 17/12 Q1017=
METAR LTAZ 220720Z VRB03KT 9999 SCT040 BKN100 18/12 Q1017=
METAR LTBA 220720Z 34010KT 9999 SCT032 BKN080 17/14 Q1017 RESHRA NOSIG=
METAR LTBD 220650Z 07006KT 9999 FEW032 BKN100 21/15 Q1014=
METAR LTBF 220650Z 05003KT 010V090 9999 SCT035 BKN100 18/13 Q1016 NOSIG=
METAR LTBH 220650Z 04017KT 9999 FEW015 SCT035 BKN100 17/14 Q1015 RESHRA=
METAR LTBJ 220720Z VRB02KT CAVOK 22/15 Q1014 NOSIG=
METAR COR LTBO 220650Z VRB02KT FEW040 SCT200 15/09 Q1016=
METAR LTBQ 220650Z 00000KT 6000 SCT030 BKN090 16/15 Q1016 NOSIG=
METAR LTBR 220720Z 11005KT 9999 SCT035 BKN100 15/14 Q1016 NOSIG=
METAR LTBS 220720Z 36007KT 320V040 CAVOK 26/12 Q1013 BECMG TL0900 22012KT=
METAR LTBU 220720Z 35011KT 6000 -SHRA BKN030 BKN080 14/12 Q1017=
METAR LTBY 220650Z 27004KT 230V300 9999 SCT040 BKN100 13/10 Q1017=
METAR LTCA 220650Z VRB04KT 9999 SCT035 BKN100 23/10 Q1016 NOSIG=
METAR LTCB 220650Z 24005KT 210V270 6000 -SHRA FEW021 BKN030 19/17 Q1013=
METAR LTCC 220720Z 21015KT 9999 FEW040 SCT100 26/09 Q1015 NOSIG=
METAR LTCD 220650Z VRB01KT 9999 SCT040 BKN090 15/11 Q1016 NOSIG=
METAR LTCE 220720Z VRB04KT 9999 SCT035 BKN080 14/07 Q1020 BECMG TL0900 23012KT=
METAR LTCF 220650Z 00000KT 9999 SCT035 13/04 Q1021=
METAR LTCG 220720Z VRB05KT 9999 BKN035 BKN100 22/15 Q1013 NOSIG=
METAR LTCI 220650Z 30005KT 9999 SCT040 17/08 Q1021 NOSIG=
METAR LTCJ 220720Z VRB04KT 9999 FEW040 BKN100 28/10 Q1015=
METAR LTCK 220650Z 12003KT 060V180 9999 SCT035 BKN100 17/08 Q1019=
METAR LTCL 220650Z 24004KT 9999 SCT040 BKN100 23/10 Q1017=
METAR LTCM 220650Z 30008KT 4000 SHRA SCT009 BKN025 BKN080 15/13 Q1016=
METAR LTCN 220650Z 29004KT 240V330 9999 FEW035 SCT100 21/18 Q1015 RESHRA=
METAR LTCO 220650Z 04003KT 340V150 9999 SCT030 BKN120 13/05 Q1021=
METAR LTCP 220650Z 22003KT 160V270 9999 SCT040 BKN100 22/14 Q1015=
METAR LTCR 220650Z VRB02KT CAVOK 26/11 Q1015=
METAR LTCS 220720Z 20006KT 150V260 CAVOK 24/11 Q1017=
METAR LTCT 220650Z 36003KT 310V110 9999 SCT035 BKN070 19/07 Q1018=
METAR LTCU 220650Z VRB02KT 9999 SCT035 BKN100 18/09 Q1018=
METAR LTCV 220650Z 12008KT CAVOK 27/07 Q1016=
METAR LTCW 220650Z 21003KT CAVOK 18/03 Q1023=
METAR LTDA 220650Z 04003KT 350V080 9999 SCT030TCU 25/19 Q1013=
METAR LTFC 220720Z VRB02KT 9999 FEW035 SCT100 18/12 Q1016=
METAR LTFD 220650Z 09009KT 9999 SCT035 BKN100 18/14 Q1014=
METAR LTFE 220720Z VRB02KT 9999 FEW035 SCT200 25/16 Q1013 NOSIG=
METAR LTFG 220650Z VRB03KT 9999 FEW030 29/18 Q1011=
METAR LTFH 220650Z 27008KT 8000 -SHRA SCT015 BKN030 BKN080 17/14 Q1016 NOSIG=
METAR LTFJ 220720Z 02007KT 9999 SCT035 BKN100 17/13 Q1016 NOSIG=
METAR LTFK 220650Z VRB07KT 6000 2800SW BCFG SCT008 BKN025 BKN090 17/15 Q1016 RESHRA=
METAR EEKA 220650Z VRB02KT 9999 SCT033 12/08 Q1021=
METAR EEKE 220650Z 04005KT 9999 BKN036 09/08 Q1021=
METAR EETN 220720Z 04009KT 010V070 9999 FEW019 SCT049 12/08 Q1021 NOSIG=
METAR EETU 220650Z 35009KT 9999 FEW014 BKN019 10/08 Q1019=
METAR EPBY 220700Z 28003KT CAVOK 10/09 Q1022 =
METAR EPGD 220700Z 32010KT 9999 -SHRA FEW028 SCT034TCU 12/09 Q1021 =
METAR EPKK 220700Z 23005KT 9999 BKN050 08/07 Q1021 =
METAR EPKT 220700Z 26004KT CAVOK 07/06 Q1022 =
METAR EPLB 220700Z 30005KT 9999 SCT005 BKN045 09/08 Q1019 =
METAR EPLL 220700Z 27003KT 240V320 0250 R25/0550N FG VV002 07/07 Q1021 =
METAR EPMO 220700Z 33005KT 300V360 CAVOK 10/08 Q1020 =
METAR EPPO 220700Z 33003KT 290V360 CAVOK 11/07 Q1023 =
METAR EPRA 220700Z 32005KT 290V350 9999 SCT009 10/08 Q1020=
METAR EPRZ 220700Z 28010KT 9999 FEW008 BKN035 08/07 Q1019 =
METAR EPSC 220700Z VRB01KT CAVOK 11/08 Q1023 =
METAR EPSY 220700Z 32008KT CAVOK 11/08 Q1020=
METAR EPWA 220700Z 30005KT CAVOK 10/08 Q1020 NOSIG=
METAR EPWR 220700Z 30005KT CAVOK 09/07 Q1023 =
METAR EPZG 220700Z VRB01KT CAVOK 10/06 Q1024 =
METAR EVLA 220720Z AUTO 06005KT 030V090 9999 NCD 12/10 Q1020=
METAR EVRA 220720Z 04008KT 9999 SCT024 OVC039 11/08 Q1019 NOSIG=
METAR EVVA 220720Z AUTO VRB03KT CAVOK 13/10 Q1020=
METAR EYKA 220720Z 34004KT 300V020 9999 BKN008 OVC038 09/08 Q1018=
METAR EYPA 220720Z 05009KT 020V080 CAVOK 12/10 Q1020=
METAR EYSA 220720Z 34007KT 9999 FEW023 BKN034 10/08 Q1019 BLU NOSIG=
METAR EYVI 220720Z 34008KT 7000 OVC004 08/07 Q1017 BECMG BKN005=
METAR LBBG 220700Z 31006KT 280V340 CAVOK 16/09 Q1017 NOSIG=
METAR LBGO 220700Z AUTO 29006KT 260V320 9999 NCD 14/08 Q1018 NOSIG=
METAR LBPD 220700Z AUTO 30012KT 9999 NCD 16/08 Q1018 NOSIG=
METAR LBSF 220700Z 32005KT 280V360 CAVOK 11/06 Q1019 NOSIG=
METAR LBWN 220700Z VRB04KT CAVOK 15/10 Q1017 NOSIG=
METAR LHBP 220700Z VRB03KT 9999 FEW048 SCT052 12/09 Q1021 NOSIG=
METAR LHDC 220645Z 03006KT CAVOK 11/06 Q1020 NOSIG=
METAR LHKE 220645Z 07006KT 030V100 CAVOK 13/07 Q1020 NOSIG RMK BLU=
METAR LHPA 220645Z 36006KT 3000 BR SCT002 10/09 Q1021 REFG BECMG 6000 NSW RMK YLO=
METAR LHPP 220645Z 29001KT 9999 FEW013 SCT083 12/09 Q1021=
METAR LHPR 220645Z 35006KT 320V030 CAVOK 11/10 Q1021 RMK BLU=
METAR LHSM 220645Z 01006KT CAVOK 12/09 Q1021=
METAR LHSN 220645Z 06006KT 030V100 CAVOK 13/08 Q1020 NOSIG RMK BLU=
METAR LHUD 220645Z 32003KT 9999 FEW008 SCT083 12/10 Q1020=
METAR LKCV 220700Z VRB01KT 8000 NSC 07/07 Q1024 NOSIG=
METAR LKKB 220700Z VRB02KT CAVOK 11/08 Q1024 NOSIG=
METAR LKKU 220700Z 04004KT 360V080 9999 FEW008 09/06 Q1023=
METAR LKKV 220700Z VRB02KT 0300 R29/0500 FG BKN002 08/07 Q1023=
METAR LKLN 220700Z AUTO 32001KT 8000 OVC006 11/09 Q1023=
METAR LKMT 220700Z VRB02KT 3000 BR NSC 09/08 Q1023 BECMG 6000 NSW=
METAR LKNA 220700Z 33004KT CAVOK 10/05 Q1023 NOSIG=
METAR LKPD 220700Z VRB02KT 8000 NSC 08/05 Q1023 NOSIG=
METAR LKPR 220700Z VRB02KT CAVOK 10/08 Q1023 NOSIG=
METAR LKTB 220700Z 31004KT 270V330 CAVOK 11/07 Q1023 NOSIG=
METAR LKVO 220700Z 11003KT 080V140 CAVOK 11/07 Q1023=
METAR LQBK 220700Z 18003KT 9999 FEW013 12/10 Q1021 NOSIG=
METAR LQMO 220700Z 13004KT 9999 FEW050 15/07 Q1016=
METAR LQSA 220700Z VRB02KT 3500 BR SCT007 BKN015 09/07 Q1022 BECMG NSW=
METAR LQTZ 220700Z VRB01KT 0350 R09/0325N FG OVC002 08/08 Q1021=
METAR LRAR 220700Z 16006KT 9999 -SHRA FEW006 SCT010 SCT035CB 10/09 Q1020 R09/19//95=
METAR LRBC 220700Z 14003KT 060V200 CAVOK 13/08 Q1018=
METAR LRBM 220700Z 18002KT 140V240 9999 FEW010 07/06 Q1020=
METAR LRBS 220700Z VRB01KT 3000 BR FEW003 11/10 Q1019 R07/29//95 BECMG 5000 SCT005=
METAR LRCK 220700Z 35008KT CAVOK 15/06 Q1017 NOSIG=
METAR LRCL 220700Z 26008KT CAVOK 11/04 Q1019=
METAR LRCV 220700Z VRB01KT 3000 BR SCT001 BKN002 11/11 Q1018=
METAR LRIA 220700Z 26005KT 220V300 CAVOK 12/04 Q1017=
METAR LROD 220700Z 00000KT CAVOK 12/08 Q1020=
METAR COR LROP 220700Z VRB02KT CAVOK 11/10 Q1019 R08R/29//95 NOSIG=
METAR LRSB 220700Z VRB02KT 9999 FEW080 11/07 Q1019=
METAR LRSM 220700Z VRB02KT CAVOK 08/07 Q1020=
METAR LRSV 220700Z 30012KT CAVOK 09/05 Q1016=
METAR LRTC 220700Z 32008KT CAVOK 13/08 Q1017=
METAR LRTM 220700Z 00000KT 2500 BR SCT001 BKN003 07/06 Q1019=
METAR LRTR 220700Z VRB01KT 8000 -SHRA SCT004 SCT045CB 10/09 Q1020 R11/29//95 NOSIG=
METAR LUBM 220700Z 27014KT CAVOK 13/06 Q1015 R25/CLRD65=
METAR LUKK 220730Z 29015KT CAVOK 14/06 Q1015 R26/CLRD// NOSIG=
METAR LWOH 220730Z 34010KT 9999 BKN040 13/07 Q1018=
METAR LWSK 220700Z 19003KT 9999 FEW033 SCT080 15/08 Q1019 NOSIG=
METAR LYBE 220700Z 25006KT 230V290 CAVOK 12/10 Q1021 NOSIG=
METAR LYBT 220700Z 23003KT 170V250 CAVOK 11/10 Q1020 NOSIG=
METAR LYKV 220700Z VRB01KT 9999 FEW010 11/08 Q1021 NOSIG=
METAR LYNI 220700Z VRB01KT CAVOK 12/07 Q1021 NOSIG=
METAR LYPG 220700Z 34008KT 9999 FEW033 SCT040 19/08 Q1016 NOSIG=
METAR LYTV 220700Z VRB02KT 9999 FEW040 SCT050 20/10 Q1015 NOSIG=
METAR LYUZ 220700Z 31006KT 270V340 9999 FEW020 09/09 Q1020=
METAR LYVR 220700Z VRB02KT CAVOK 11/09 Q1020 NOSIG=
METAR LZIB 220730Z 02010KT 9999 FEW010 15/05 Q1022 NOSIG=
METAR LZKZ 220730Z VRB02KT CAVOK 12/06 Q1020 NOSIG=
METAR LZPP 220730Z 01012KT CAVOK 11/08 Q1022=
METAR LZSL 220730Z 00000KT CAVOK 12/07 Q1021=
METAR LZTT 220730Z 28009KT 250V310 9999 FEW018 BKN070 08/05 Q1020 NOSIG=
METAR LZZI 220730Z 10006KT 070V130 9999 BKN008 08/08 Q1022=
METAR UAAA 220700Z VRB01MPS 9999 FEW050 28/08 Q1017 R88/CLRD65 NOSIG=
METAR UAAH 220700Z 08007MPS CAVOK 22/03 Q1021 R05/0///60 NOSIG RMK QFE728/0971=
METAR UACC 220700Z 09003MPS 040V170 9999 SCT040 BKN230 18/01 Q1027 R04/0/0070 NOSIG RMK QFE738/0985=
METAR UACK 220700Z VRB01MPS CAVOK 17/02 Q1028 R20/010070 NOSIG RMK QFE747/0996=
METAR UACP 220630Z VRB01MPS 9999 BKN040 OVC100 14/06 Q1028 R05/0/0060 NOSIG RMK QFE759/1012=
METAR UADD 220700Z 34004MPS 300V020 9999 NSC 24/06 Q1015 R13/0///65 NOSIG RMK QFE705/0940=
METAR UAII 220700Z VRB01MPS CAVOK 32/08 Q1012 R10/0///70 NOSIG RMK QFE724/0965=
METAR UAKK 220700Z 07006MPS 040V100 CAVOK 17/02 Q1026 R05/0///70 NOSIG RMK QFE722/0962=
METAR UAOO 220700Z 06008MPS CAVOK 26/02 Q1015 R05/CLRD70 NOSIG RMK QFE749/0999=
METAR UARR 220700Z 21006MPS 9999 BKN021CB OVC100 20/15 Q1010 R22/CLRD70 NOSIG RMK QFE754/1005=
METAR UASK 220700Z 35007MPS 320V020 9999 FEW040 SCT100 19/01 Q1022 R30/090060 NOSIG RMK QFE741/0988=
METAR UASP 220700Z 30006MPS 9999 SCT040 19/05 Q1025 R21/0///70 NOSIG RMK QFE757/1010=
METAR UASS 220700Z 36005MPS 320V040 CAVOK 18/04 Q1024 R26/0///60 NOSIG RMK QFE749/0999=
METAR UATE 220700Z 36007MPS 9999 BKN018 OVC150 24/18 Q1011 R30/0///70 NOSIG RMK QFE757/1009=
METAR UATG 220700Z VRB01MPS CAVOK 24/16 Q1011 R14/CLRD70 NOSIG RMK QFE760/1013=
METAR UATT 220700Z 17007MPS CAVOK 26/09 Q1018 R13/CLRD70 NOSIG RMK QFE743/0991=
METAR UAUU 220700Z 13006MPS CAVOK 20/06 Q1024 R15/CLRD70 NOSIG RMK QFE751/1002=
METAR UBBB 220700Z 33020G30KT 9999 FEW022 24/18 Q1013 R88/CLRD// NOSIG=
METAR UBBG 220700Z 34005KT 9999 FEW040 SCT083 23/13 Q1014 R30/CLRD// NOSIG =
METAR UBBL 220700Z 00000KT 9999 NSC 28/18 Q1014 R33/CLRD// RMK MT OP=
METAR UBBN 220700Z 23002KT 9999 SCT050 BKN100 21/09 Q1016 R14R/CLRD// NOSIG RMK MT OP QFE687=
METAR UBBQ 220700Z VRB02KT 9999 NSC 23/15 Q1014 R16/CLRD// NOSIG RMK MT OP=
METAR UBBY 220700Z VRB02KT 9999 SCT080 21/14 Q1017 R33/////// NOSIG RMK MT OP=
METAR UBEE 220700Z 32009KT CAVOK 26/13 Q1013 R30/CLRD// NOSIG=
METAR UCFL 220700Z 15004MPS 110V180 9999 FEW033 21/07 Q1023 RMK G/O=
METAR UCFM 220700Z 05002MPS CAVOK 29/07 Q1015 R08/CLRD70 NOSIG=
METAR UCFO 220700Z 28003MPS 240V340 CAVOK 29/10 Q1014 R12/CLRD70 NOSIG=
METAR UDSG 220700Z VRB01KT 9999 FEW046CB 14/05 Q1020 R02/CLRD70 NOSIG=
METAR UDYZ 220700Z 00000KT 9999 NSC 20/07 Q1017 R09/010070 NOSIG=
METAR UEEE 220700Z 21002MPS 9999 SCT050CB 11/M00 Q1004 R23L/09//60 NOSIG RMK QFE745=
METAR UGKO 220730Z 28004KT 240V310 9000 BKN047 20/15 Q1013 R07/09//65 NOSIG=
METAR UGSB 220730Z 19004KT 130V220 9999 FEW028 SCT077 22/16 Q1015 R13/CLRD70 NOSIG=
METAR UGTB 220730Z 29004KT 200V340 CAVOK 21/12 Q1017 R31L/CLRD70 NOSIG=
METAR UHBB 220700Z 08002MPS 050V120 9999 FEW033 21/11 Q1008 R36/090060 NOSIG RMK QFE739/0985=
METAR UHHH 220700Z 22003MPS 170V250 CAVOK 21/11 Q1015 R23L/090060 NOSIG RMK QFE755/1006=
METAR UHMA 220700Z VRB01MPS 9999 SCT033 BKN150 03/M00 Q0997 R88/CLRD60 NOSIG RMK QFE744/0992=
METAR UHMM 220700Z 22006MPS 9999 NSC 08/M00 Q1010 R10/CLRD70 NOSIG RMK QFE743=
METAR UHPP 220700Z 26004MPS 9999 NSC 11/04 Q1011 R34L/CLRD70 NOSIG RMK MT OBSC QFE755/1006=
METAR UHSS 220700Z 17005MPS 9999 NSC 17/13 Q1020 RMK QFE764/1018=
METAR UHWW 220700Z 18004MPS 9999 SCT026 20/14 Q1018 R25L/0///70 NOSIG RMK QFE762=
METAR UIAA 220700Z 27005MPS 5000 FU NSC 18/01 Q1010 R29/CLRD70 NOSIG RMK QFE699=
METAR UIBB 220700Z 07003MPS 340V130 6000 NSC 15/00 Q1014 R30/CLRD60 NOSIG RMK QFE717/0957=
METAR UIII 220700Z 25002MPS 200V300 CAVOK 22/09 Q1010 R12/CLRD60 NOSIG RMK QFE715/0954=
METAR UIUU 220700Z 30002MPS 230V340 9999 FEW040 20/04 Q1011 R26/010095 NOSIG RMK QFE714/0952=
METAR UKBB 220700Z 28002MPS 8000 -SHRA FEW006 SCT011CB OVC032 08/08 Q1011 R88/290060 NOSIG=
METAR UKDD 220700Z 26004MPS 220V310 CAVOK 12/07 Q1011 R26/090070 NOSIG=
METAR UKDE 220700Z 21004MPS 170V260 9999 SCT033 13/06 Q1013 R20/210370 NOSIG=
METAR UKDR 220700Z 25004MPS CAVOK 11/05 Q1012 R36/09//70 NOSIG=
METAR UKHH 220700Z 22003MPS 9999 SCT033CB BKN100 09/05 Q1010 R07/0///67 NOSIG=
METAR UKKK 220700Z 31004MPS 8000 -SHRA FEW007 SCT029CB OVC036 09/08 Q1011 R26/290256 NOSIG=
METAR UKKM 220700Z 31005MPS 9999 SCT007 OVC029 09/08 Q1011 R33/210260 TEMPO 2100 -SHRA SCT005 BKN015CB=
METAR UKLI 220700Z 29004MPS 260V320 9999 SCT014CB BKN033 09/08 Q1017 R28/090070 NOSIG=
METAR UKLL 220700Z 29003MPS 7000 -SHRA BKN003 BKN026CB 07/06 Q1018 R31/290060 TEMPO BKN003=
METAR UKLN 220700Z 30006MPS 250V360 9999 SCT033CB BKN100 10/07 Q1017 R33/09//70 NOSIG=
METAR UKLR 220700Z 31005MPS 270V340 9999 BKN010 OVC100 09/07 Q1015 NOSIG=
METAR UKLU 220700Z 00000MPS 9999 BKN050 09/07 Q1020 R10/090070 NOSIG=
METAR UKOH 220700Z 27002MPS 200V340 CAVOK 12/07 Q1015 R03/CLRD95 NOSIG=
METAR UKON 220700Z 27003MPS 200V310 CAVOK 12/06 Q1014 NOSIG=
METAR UKOO 220700Z 29005MPS CAVOK 13/08 Q1015 R34/090060 NOSIG=
METAR COR UKWW 220700Z 30004MPS 9999 -SHRA SCT012 BKN017CB 09/07 Q1013 R31/0///65 NOSIG=
METAR ULAA 220700Z 04002MPS 010V080 9999 OVC016 08/06 Q1027 R08/CLRD70 NOSIG RMK QFE769/1026=
METAR ULLI 220700Z 05004MPS 9999 FEW011 SCT016 11/09 Q1019 R88/290050 NOSIG=
METAR ULMM 220700Z 17002MPS 7000 -SHRA BKN011CB 08/05 Q1027 R31/090070 NOSIG RMK QFE763=
METAR ULOO 220700Z 36004MPS 330V030 P5000 BKN018 11/08 Q1017 R01/090070 NOSIG RMK QFE759=
METAR ULPB 220700Z AUTO 04004MPS 9999 NCD 09/06 Q1022 RMK QFE762/1017=
METAR ULWC 220700Z 36005G10MPS 9999 SCT013CB 10/06 Q1014 R03/190060 NOSIG RMK QFE751/1001=
METAR UMBB 220700Z 32004MPS 9999 SCT006CB SCT100 09/08 Q1017 R29/CLRD// NOSIG RMK QBB190=
METAR UMGG 220700Z 35005MPS 9999 -SHRA BKN006 OVC019CB 08/08 Q1010 R28/290550 NOSIG RMK QBB180=
METAR UMII 220700Z 36003G06MPS 9999 BKN008 BKN018CB 09/07 Q1012 R05/290050 NOSIG=
METAR UMKK 220700Z VRB01MPS 9999 SCT019CB 13/12 Q1020 R24/29//60 NOSIG RMK QFE764/1019=
METAR UMMG 220700Z 33004G07MPS 5000 BR BKN004 OVC066 08/07 Q1018 R35/CLRD// TEMPO 2000 RMK QBB140=
METAR UMMM 220700Z 35004MPS 9999 BKN011CB OVC100 10/08 Q1013 NOSIG RMK QFE740=
METAR UMMS 220700Z 34004MPS 9999 -SHRA BKN008 BKN036CB 09/08 Q1013 R31/290060 NOSIG=
METAR UMOO 220700Z 35003MPS 9999 BKN043 OVC/// 10/09 Q1012 R31/290068 NOSIG=
METAR UNAA 220700Z 24002MPS 9999 -SHRA BKN041CB 14/12 Q1014 R02/290055 NOSIG RMK QFE738=
METAR UNBB 220700Z 31005MPS 9999 BKN028 13/07 Q1021 R24/CLRD66 NOSIG RMK QFE743=
METAR UNEE 220700Z 31004MPS 3900 FU SCT033CB 15/11 Q1018 R23/CLRD60 NOSIG RMK QFE740=
METAR UNKL 220700Z VRB01MPS 5000 FU SCT029 16/09 Q1015 R29/CLRD65 NOSIG RMK QFE735=
METAR UNNT 220700Z 28004MPS 9999 FEW011 OVC033CB 13/09 Q1020 R25/290160 R34/090070 NOSIG RMK QFE755/1007=
METAR UNOO 220700Z 32005MPS CAVOK 16/06 Q1026 R25/CLRD60 NOSIG RMK QFE761=
METAR UNTT 220700Z 03003MPS 340V060 9999 FEW040CB 17/09 Q1018 R21/090060 NOSIG RMK QFE748=
METAR URFF 220700Z 22004MPS CAVOK 15/07 Q1015 R19/290295 NOSIG=
METAR URKA 220700Z 31002MPS CAVOK 17/05 Q1016 R04/010070 RMK QFE758/1010=
METAR URKK 220700Z 24003MPS 220V280 9999 FEW063CB 14/07 Q1016 R23C/15//55 NOSIG RMK QFE759=
METAR URMG 220700Z 13003MPS 100V170 CAVOK 18/09 Q1016 R08/000070 NOSIG RMK QFE747/0996=
METAR URML 220700Z 35005MPS 320V020 9999 BKN/// 23/10 Q1014 R32/01//70 NOSIG RMK QFE760/1014=
METAR URMM 220700Z 12004MPS 9999 OVC025 15/11 Q1016 R12/000070 NOSIG RMK QFE734/0979=
METAR URMN 220700Z 11001MPS 9999 BKN013 OVC/// 13/12 Q1016 R24/110060 RMK MT OBSC QFE725=
METAR URMO 220700Z 09005MPS 9999 BKN029 15/09 Q1015 R10/010070 NOSIG RMK QFE718/0957=
METAR URMT 220700Z 25002MPS 9999 -SHRA BKN030CB 13/10 Q1016 R25/290055 NOSIG RMK QFE723=
METAR URRR 220700Z 24006MPS 9999 SCT/// 14/07 Q1013 R22/CLRD70 TEMPO 2000 BR SCT004 RMK QFE752/1003=
METAR URSS 220700Z 33003MPS 9000 -SHRA BKN053CB OVC083 17/14 Q1014 R02/290050 R06/290050 NOSIG RMK R06/34003G09MPS QFE759=
METAR URWA 220700Z 29005MPS 270V330 CAVOK 18/08 Q1014 R27/010070 NOSIG RMK QFE762/1017=
METAR URWI 220700Z 24006MPS 9999 SCT/// 16/10 Q1015=
METAR URWW 220700Z 26007MPS 9999 SCT025 14/08 Q1012 R24/010070 NOSIG=
METAR USCC 220700Z 13003MPS 9999 -SHRA BKN030CB 14/11 Q1023 R09/290050 NOSIG RMK QFE746=
METAR USCM 220700Z 02001MPS 9999 SCT050CB 15/08 Q1021 R01/090065 NOSIG RMK QFE727=
METAR USHH 220700Z 28002MPS 230V330 9999 OVC002 10/09 Q1027 R24/010060 TEMPO 0900 FG VV001 RMK QFE767=
METAR USNN 220700Z 32002MPS 4800 BR BKN011 13/11 Q1024 R03/0///65 NOSIG RMK QFE764=
METAR USPP 220700Z 10006MPS 9999 -RA BKN012 10/09 Q1019 R21/290150 NOSIG RMK QFE753=
METAR USRR 220700Z 32003MPS 280V350 4900 BR SCT012 BKN016 13/12 Q1025 R07/19//60 TEMPO 2000 BR BKN005 RMK OBST OBSC QFE764=
METAR USSS 220700Z 09004MPS 9999 BKN007 OVC020CB 10/10 Q1023 R08L/290037 NOSIG RMK QFE747/0996=
METAR USTR 220700Z 11003MPS 9999 SCT036 BKN070 11/06 Q1028 R21/CLRD65 NOSIG RMK QFE761/1015=
METAR UTAA 220700Z 32013KT 9999 NSC 36/07 Q1008 NOSIG=
METAR UTAK 220700Z 33016KT 9999 BKN019 27/20 Q1011 NOSIG=
METAR UTAM 220700Z 11006KT CAVOK 31/11 Q1009 NOSIG=
METAR UTAT 220700Z 10012KT CAVOK 28/10 Q1012 NOSIG=
METAR UTAV 220700Z 03003KT CAVOK 31/13 Q1009 NOSIG=
METAR UTDD 220700Z VRB02MPS 9999 NSC 33/08 Q1013 R09/CLRD// NOSIG RMK QFE692/0922=
METAR UTDK 220700Z 20003MPS 150V230 9999 NSC 32/10 Q1012 R01/09//70 RMK QFE702/0936=
METAR UTDL 220700Z 07007MPS 9999 FEW230 30/11 Q1012 88CLRD70 NOSIG RMK QFE720/0960=
METAR UTDT 220700Z 28002MPS 230V320 9999 NSC 32/11 Q1011 35CLRD70 RMK QFE719/0958=
METAR UTFF 220700Z 03004KT 010V080 9999 NSC 31/10 Q1013 R18/CLRD70=
METAR UTFN 220700Z 19003KT 9999 NSC 30/10 Q1012 R28/CLRD70 NOSIG=
METAR UTNN 220700Z 11007KT CAVOK 32/01 Q1012 R33/CLRD60 NOSIG=
METAR UTNU 220700Z 06005KT CAVOK 28/08 Q1011 R31/CLRD70 NOSIG=
METAR UTSA 220700Z 05006KT 020V080 9999 NSC 33/08 Q1010 R07/CLRD70 NOSIG=
METAR UTSB 220700Z 03004KT CAVOK 31/11 Q1010 R01/CLRD70 NOSIG=
METAR UTSK 220700Z 21004KT 140V280 CAVOK 33/07 Q1011 R16/CLRD70=
METAR UTSS 220700Z 05003KT 9999 NSC 31/04 Q1013 R88/CLRD70 NOSIG=
METAR UTST 220700Z 07004KT 020V120 CAVOK 34/07 Q1010 R88/CLRD70 NOSIG=
METAR UTTT 220700Z 24004KT 7000 NSC 31/12 Q1012 R08L/CLRD70 NOSIG=
METAR UUBC 220700Z 31004MPS 9999 -SHRA BKN008 OVC030CB 08/07 Q1005 R31/290150 TEMPO 5000 -SHRA BKN006 OVC015CB RMK QFE737/0983=
METAR UUBP 220700Z 33003MPS 9999 BKN018CB 09/07 Q1008 R34/190060 NOSIG RMK QFE738/0984=
METAR UUBW 220700Z 36005MPS 6000 -RA BKN008 OVC017 09/07 Q1003 R30/210050 NOSIG=
METAR UUDD 220700Z 36005MPS 8000 -RA SCT005 OVC016 08/07 Q1003 R32L/290095 R32R/290094 NOSIG=
METAR UUDL 220700Z 03006G11MPS 3300 -RA OVC008 08/08 Q1006 R23/290295 NOSIG RMK QFE746=
METAR UUEE 220700Z 36005MPS 9999 -RA OVC008 08/07 Q1004 R06L/290145 R06R/290151 NOSIG=
METAR UUMO 220700Z 01004MPS 340V040 7000 -RA OVC008 08/07 Q1004 R08/290350 NOSIG RMK QFE738/0984=
METAR UUOB 220700Z 21003MPS CAVOK 11/06 Q1008 R29/090060 NOSIG=
METAR UUOK 220700Z 22003MPS 9000 BKN007 BKN020CB 10/08 Q1007 R30/290055 NOSIG RMK QFE737/0983=
METAR UUOO 220700Z 25003MPS 9999 OVC022 09/07 Q1007 R30/190060 NOSIG RMK QFE741=
METAR UUWW 220700Z 36005MPS 9000 -RA OVC006 08/07 Q1004 R01/290145 NOSIG=
METAR UUYY 220700Z 06005MPS 9999 BKN006 OVC015 08/08 Q1024 R01/19//55 NOSIG RMK QFE759/1012=
METAR UWGG 220700Z 07005MPS 9999 -SHRA OVC006CB 10/09 Q1002 R36L/290050 NOSIG RMK QFE745=
METAR UWKD 220700Z 12006MPS 9999 BKN028CB 15/12 Q1005 R11/2/0060 NOSIG RMK QFE743/0991=
METAR UWKE 220700Z 11008G13MPS CAVOK 15/11 Q1008 R03/210370 NOSIG RMK QFE739/0986=
METAR UWKS 220700Z 11006MPS 3100 -RA BR OVC004 11/11 Q1004 R06/290355 NOSIG RMK QFE738=
METAR UWLW 220700Z 14003MPS 8000 BKN033CB 13/13 Q1004 R20/290150 TEMPO VRB12MPS 2100 -TSRA BR BKN007 RMK QFE748=
METAR UWOO 220700Z 17008MPS 140V200 CAVOK 28/06 Q1014 R08/CLRD65 NOSIG RMK QFE750/1000=
METAR UWOR 220700Z 16004MPS CAVOK 25/12 Q1019 R07/CLRD65 NOSIG RMK QFE740/0986=
METAR UWSS 220700Z 23005G10MPS 9999 BKN014 OVC050CB 12/08 Q1007 R30/010095 NOSIG RMK QFE742=
METAR UWUU 220700Z 12006MPS 9999 BKN040 20/14 Q1013 R14L/1///52 NOSIG RMK QFE749/0999=
METAR UWWW 220700Z 18005MPS 9999 FEW026CB 15/15 Q1006 R23/290150 NOSIG RMK QFE743/0991=
